{
  "type": "FeatureCollection",
  "features": [
    {
      "type": "Feature",
      "geometry": {
        "type": "Point",
        "coordinates": [
          77.62349769473076,
          12.917931432585968
        ]
      },
      "properties": {
        "Platform": "2A",
        "Color": "#000000",
        "Icon": "2A",
        "OpenHour": 0,
        "CloseHour": 0,
        "ApiIds": [
          "20707"
        ],
        "Routes": [
          {
            "Route": "500-D DOWN",
            "RouteId": 1796,
            "RouteParentId": 1066,
            "Destination": "Hebbala Bridge",
            "Via": "",
            "Area": "Central Silk Board",
            "PlatformNumber": "2A",
            "KannadaDestination": "ಹೆಬ್ಬಲ ಬ್ರಿದ್ಗೆ",
            "KannadaArea": "ಕೇಂದ್ರ ರೇಷ್ಮೆ ಮಂಡಳಿ",
            "KannadaVia": "",
            "FromStationId": 20707,
            "Stops": [
              {
                "name": "Central Silk Board",
                "name_kn": "ಕೆಂಟ್ರಲ್ ಸಿಲ್ಕ್ ಬೊರ್ದ್",
                "stop_id": "20707",
                "lat": 12.91803,
                "lon": 77.62355
              },
              {
                "name": "SI Apartment HSR Layout",
                "name_kn": "ಸಿ ಪರ್ಟ್ಮೆಂಟ್ ಹ್ಸ್ರ್ ಲಯೌಟ್",
                "stop_id": "21177",
                "lat": 12.91677,
                "lon": 77.62942
              },
              {
                "name": "14th Main HSR Layout",
                "name_kn": "14ತ್ ಮೈಂ ಹ್ಸ್ರ್ ಲಯೌಟ್",
                "stop_id": "20568",
                "lat": 12.91637,
                "lon": 77.63472
              },
              {
                "name": "Depot-25 Gate",
                "name_kn": "ದೆಪೊಟ್-25 ಗಟೆ",
                "stop_id": "20749",
                "lat": 12.91936,
                "lon": 77.64255
              },
              {
                "name": "Agara Junction",
                "name_kn": "ಅಗರ ಜುಂಕ್ಟಿೊಂ",
                "stop_id": "20598",
                "lat": 12.92452,
                "lon": 77.65028
              },
              {
                "name": "Ibbaluru",
                "name_kn": "ಇಬ್ಬಲುರು",
                "stop_id": "20851",
                "lat": 12.9216,
                "lon": 77.66176
              },
              {
                "name": "Sarjapura Ring Road Junction",
                "name_kn": "ಸರ್ಜಪುರ ರಿಙ್ ರೊದ್ ಜುಂಕ್ಟಿೊಂ",
                "stop_id": "20889",
                "lat": 12.92113,
                "lon": 77.66604
              },
              {
                "name": "Bellanduru Petrol Bunk",
                "name_kn": "ಬೆಲ್ಲಂದುರು ಪೆಟ್ರೊಲ್ ಬುಂಕ್",
                "stop_id": "21092",
                "lat": 12.92322,
                "lon": 77.6702
              },
              {
                "name": "Bellanduru City light Apartment",
                "name_kn": "ಬೆಲ್ಲಂದುರು ಕಿಟೆ ಲಿಘ್ಟ್ ಪರ್ಟ್ಮೆಂಟ್",
                "stop_id": "20638",
                "lat": 12.92493,
                "lon": 77.67394
              },
              {
                "name": "Eco Space",
                "name_kn": "ಎಕೊ ಸ್ಪಕೆ",
                "stop_id": "20771",
                "lat": 12.92838,
                "lon": 77.6812
              },
              {
                "name": "Devarabisanahalli Ring Road",
                "name_kn": "ದೆವರಬಿಸನಹಲ್ಲಿ ರಿಙ್ ರೊದ್",
                "stop_id": "20754",
                "lat": 12.93218,
                "lon": 77.68729
              },
              {
                "name": "New Horizon College",
                "name_kn": "ನೆವ್ ಹೊರಿಜ಼ೊಂ ಕೊಲ್ಲೆಗೆ",
                "stop_id": "21059",
                "lat": 12.93516,
                "lon": 77.69063
              },
              {
                "name": "Kadubisanahalli",
                "name_kn": "ಕದುಬಿಸನಹಲ್ಲಿ",
                "stop_id": "20895",
                "lat": 12.94259,
                "lon": 77.69704
              },
              {
                "name": "Multiplex Marathahalli",
                "name_kn": "ಮುಲ್ಟಿಪ್ಲೆಕ್ಸ್ ಮರತಹಲ್ಲಿ",
                "stop_id": "21032",
                "lat": 12.95153,
                "lon": 77.69973
              },
              {
                "name": "Marathahalli Bridge",
                "name_kn": "ಮರತಹಲ್ಲಿ ಬ್ರಿದ್ಗೆ",
                "stop_id": "33843",
                "lat": 12.95488,
                "lon": 77.70053
              },
              {
                "name": "Kalamandira Marathahalli Bridge",
                "name_kn": "ಕಲಮಂದಿರ ಮರತಹಲ್ಲಿ ಬ್ರಿದ್ಗೆ",
                "stop_id": "22670",
                "lat": 12.96038,
                "lon": 77.70135
              },
              {
                "name": "Karthik Nagara",
                "name_kn": "ಕರ್ತಿಕ್ ನಗರ",
                "stop_id": "20913",
                "lat": 12.96825,
                "lon": 77.70153
              },
              {
                "name": "Dodda Nekkundi Bridge/Rainbow Hospital",
                "name_kn": "ದೊದ್ದ ನೆಕ್ಕುಂದಿ ಬ್ರಿದ್ಗೆ/ರೈಂಬೌ ಹೊಸ್ಪಿಟಲ್",
                "stop_id": "20761",
                "lat": 12.97565,
                "lon": 77.697
              },
              {
                "name": "EMC2",
                "name_kn": "ಎಂಕ್2",
                "stop_id": "20775",
                "lat": 12.98239,
                "lon": 77.69288
              },
              {
                "name": "Mahadevapura Ring Road",
                "name_kn": "ಮಹದೆವಪುರ ರಿಙ್ ರೊದ್",
                "stop_id": "20978",
                "lat": 12.98868,
                "lon": 77.68904
              },
              {
                "name": "B Narayanapura Ring Road",
                "name_kn": "ಬ್ ನರಯನಪುರ ರಿಙ್ ರೊದ್",
                "stop_id": "20616",
                "lat": 12.99589,
                "lon": 77.68387
              },
              {
                "name": "KR Pura Railway Station",
                "name_kn": "ಕ್ರ್ ಪುರ ರೈಲ್ವಯ್ ಸ್ಟಟಿೊಂ",
                "stop_id": "21113",
                "lat": 12.99998,
                "lon": 77.67654
              },
              {
                "name": "Tin Factory",
                "name_kn": "ಟಿಂ ೞಕ್ಟೊರೆ",
                "stop_id": "21228",
                "lat": 12.99645,
                "lon": 77.66857
              },
              {
                "name": "Kasthurinagara",
                "name_kn": "ಕಸ್ತುರಿನಗರ",
                "stop_id": "20915",
                "lat": 13.00404,
                "lon": 77.66315
              },
              {
                "name": "B Channasandra Bridge(Ramamurthy Nagara Ring Road)",
                "name_kn": "ಬ್ ಚಂನಸಂದ್ರ ಬ್ರಿದ್ಗೆ(ರಮಮುರ್ತೆ ನಗರ ರಿಙ್ ರೊದ್)",
                "stop_id": "22651",
                "lat": 13.01124,
                "lon": 77.66226
              },
              {
                "name": "Vijaya Bank Colony Ring Road",
                "name_kn": "ವಿಜಯ ಬಂಕ್ ಕೊಲೊನೆ ರಿಙ್ ರೊದ್",
                "stop_id": "21264",
                "lat": 13.01695,
                "lon": 77.66021
              },
              {
                "name": "Horamavu Signal",
                "name_kn": "ಹೊರಮವು ಸಿಗ್ನಲ್",
                "stop_id": "20839",
                "lat": 13.01961,
                "lon": 77.65385
              },
              {
                "name": "Babusabpalya",
                "name_kn": "ಬಬುಸಬ್ಪಲೆ",
                "stop_id": "20617",
                "lat": 13.0226,
                "lon": 77.64702
              },
              {
                "name": "Kalyananagara",
                "name_kn": "ಕಲೆನನಗರ",
                "stop_id": "20904",
                "lat": 13.0264,
                "lon": 77.63642
              },
              {
                "name": "Hennur Junction",
                "name_kn": "ಹೆಂನುರ್ ಜುಂಕ್ಟಿೊಂ",
                "stop_id": "21528",
                "lat": 13.02948,
                "lon": 77.63125
              },
              {
                "name": "HBR Layout",
                "name_kn": "ಹ್ಬ್ರ್ ಲಯೌಟ್",
                "stop_id": "20816",
                "lat": 13.035,
                "lon": 77.62849
              },
              {
                "name": "Nagawara Junction",
                "name_kn": "ನಗವರ ಜುಂಕ್ಟಿೊಂ",
                "stop_id": "20885",
                "lat": 13.04046,
                "lon": 77.62408
              },
              {
                "name": "Manyatha Tech Park",
                "name_kn": "ಮನೆತ ಟೆಚ್ ಪರ್ಕ್",
                "stop_id": "20999",
                "lat": 13.04106,
                "lon": 77.61999
              },
              {
                "name": "Veerannapalya",
                "name_kn": "ವೀರಂನಪಲೆ",
                "stop_id": "21252",
                "lat": 13.04217,
                "lon": 77.61352
              },
              {
                "name": "Kempapura",
                "name_kn": "ಕೆಂಪಪುರ",
                "stop_id": "20920",
                "lat": 13.0436,
                "lon": 77.60121
              },
              {
                "name": "Hebbala Bridge",
                "name_kn": "ಹೆಬ್ಬಲ ಬ್ರಿದ್ಗೆ",
                "stop_id": "20823",
                "lat": 13.04259,
                "lon": 77.5925
              }
            ]
          },
          {
            "Route": "500-C UP",
            "RouteId": 3015,
            "RouteParentId": 1713,
            "Destination": "KR Pura Govt Hospital",
            "Via": "",
            "Area": "Central Silk Board",
            "PlatformNumber": "2A",
            "KannadaDestination": "ಕ್ರ್ ಪುರ ಗೊವ್ಟ್ ಹೊಸ್ಪಿಟಲ್",
            "KannadaArea": "ಕೇಂದ್ರ ರೇಷ್ಮೆ ಮಂಡಳಿ",
            "KannadaVia": "",
            "FromStationId": 20707,
            "Stops": [
              {
                "name": "Central Silk Board",
                "name_kn": "ಕೆಂಟ್ರಲ್ ಸಿಲ್ಕ್ ಬೊರ್ದ್",
                "stop_id": "20707",
                "lat": 12.91803,
                "lon": 77.62355
              },
              {
                "name": "SI Apartment HSR Layout",
                "name_kn": "ಸಿ ಪರ್ಟ್ಮೆಂಟ್ ಹ್ಸ್ರ್ ಲಯೌಟ್",
                "stop_id": "21177",
                "lat": 12.91677,
                "lon": 77.62942
              },
              {
                "name": "14th Main HSR Layout",
                "name_kn": "14ತ್ ಮೈಂ ಹ್ಸ್ರ್ ಲಯೌಟ್",
                "stop_id": "20568",
                "lat": 12.91637,
                "lon": 77.63472
              },
              {
                "name": "Depot-25 Gate",
                "name_kn": "ದೆಪೊಟ್-25 ಗಟೆ",
                "stop_id": "20749",
                "lat": 12.91936,
                "lon": 77.64255
              },
              {
                "name": "Agara Junction",
                "name_kn": "ಅಗರ ಜುಂಕ್ಟಿೊಂ",
                "stop_id": "20598",
                "lat": 12.92452,
                "lon": 77.65028
              },
              {
                "name": "Ibbaluru",
                "name_kn": "ಇಬ್ಬಲುರು",
                "stop_id": "20851",
                "lat": 12.9216,
                "lon": 77.66176
              },
              {
                "name": "Sarjapura Ring Road Junction",
                "name_kn": "ಸರ್ಜಪುರ ರಿಙ್ ರೊದ್ ಜುಂಕ್ಟಿೊಂ",
                "stop_id": "20889",
                "lat": 12.92113,
                "lon": 77.66604
              },
              {
                "name": "Bellanduru Petrol Bunk",
                "name_kn": "ಬೆಲ್ಲಂದುರು ಪೆಟ್ರೊಲ್ ಬುಂಕ್",
                "stop_id": "21092",
                "lat": 12.92322,
                "lon": 77.6702
              },
              {
                "name": "Bellanduru City light Apartment",
                "name_kn": "ಬೆಲ್ಲಂದುರು ಕಿಟೆ ಲಿಘ್ಟ್ ಪರ್ಟ್ಮೆಂಟ್",
                "stop_id": "20638",
                "lat": 12.92493,
                "lon": 77.67394
              },
              {
                "name": "Eco Space",
                "name_kn": "ಎಕೊ ಸ್ಪಕೆ",
                "stop_id": "20771",
                "lat": 12.92838,
                "lon": 77.6812
              },
              {
                "name": "Devarabisanahalli Ring Road",
                "name_kn": "ದೆವರಬಿಸನಹಲ್ಲಿ ರಿಙ್ ರೊದ್",
                "stop_id": "20754",
                "lat": 12.93218,
                "lon": 77.68729
              },
              {
                "name": "New Horizon College",
                "name_kn": "ನೆವ್ ಹೊರಿಜ಼ೊಂ ಕೊಲ್ಲೆಗೆ",
                "stop_id": "21059",
                "lat": 12.93516,
                "lon": 77.69063
              },
              {
                "name": "Kadubisanahalli",
                "name_kn": "ಕದುಬಿಸನಹಲ್ಲಿ",
                "stop_id": "20895",
                "lat": 12.94259,
                "lon": 77.69704
              },
              {
                "name": "Multiplex Marathahalli",
                "name_kn": "ಮುಲ್ಟಿಪ್ಲೆಕ್ಸ್ ಮರತಹಲ್ಲಿ",
                "stop_id": "21032",
                "lat": 12.95153,
                "lon": 77.69973
              },
              {
                "name": "Kalamandira Marathahalli Bridge",
                "name_kn": "ಕಲಮಂದಿರ ಮರತಹಲ್ಲಿ ಬ್ರಿದ್ಗೆ",
                "stop_id": "22670",
                "lat": 12.96038,
                "lon": 77.70135
              },
              {
                "name": "Karthik Nagara",
                "name_kn": "ಕರ್ತಿಕ್ ನಗರ",
                "stop_id": "20913",
                "lat": 12.96825,
                "lon": 77.70153
              },
              {
                "name": "Dodda Nekkundi Bridge/Rainbow Hospital",
                "name_kn": "ದೊದ್ದ ನೆಕ್ಕುಂದಿ ಬ್ರಿದ್ಗೆ/ರೈಂಬೌ ಹೊಸ್ಪಿಟಲ್",
                "stop_id": "20761",
                "lat": 12.97565,
                "lon": 77.697
              },
              {
                "name": "EMC2",
                "name_kn": "ಎಂಕ್2",
                "stop_id": "20775",
                "lat": 12.98239,
                "lon": 77.69288
              },
              {
                "name": "Mahadevapura Ring Road",
                "name_kn": "ಮಹದೆವಪುರ ರಿಙ್ ರೊದ್",
                "stop_id": "20978",
                "lat": 12.98868,
                "lon": 77.68904
              },
              {
                "name": "B Narayanapura Ring Road",
                "name_kn": "ಬ್ ನರಯನಪುರ ರಿಙ್ ರೊದ್",
                "stop_id": "20616",
                "lat": 12.99589,
                "lon": 77.68387
              },
              {
                "name": "KR Pura Railway Station",
                "name_kn": "ಕ್ರ್ ಪುರ ರೈಲ್ವಯ್ ಸ್ಟಟಿೊಂ",
                "stop_id": "21113",
                "lat": 12.99998,
                "lon": 77.67654
              },
              {
                "name": "Tin Factory",
                "name_kn": "ಟಿಂ ೞಕ್ಟೊರೆ",
                "stop_id": "21228",
                "lat": 12.99645,
                "lon": 77.66857
              },
              {
                "name": "Kasthurinagara",
                "name_kn": "ಕಸ್ತುರಿನಗರ",
                "stop_id": "20915",
                "lat": 13.00404,
                "lon": 77.66315
              },
              {
                "name": "B Channasandra Bridge(Ramamurthy Nagara Ring Road)",
                "name_kn": "ಬ್ ಚಂನಸಂದ್ರ ಬ್ರಿದ್ಗೆ(ರಮಮುರ್ತೆ ನಗರ ರಿಙ್ ರೊದ್)",
                "stop_id": "21695",
                "lat": 13.01318,
                "lon": 77.66272
              },
              {
                "name": "Ramamurthy Nagara Police Station",
                "name_kn": "ರಮಮುರ್ತೆ ನಗರ ಪೊಲಿಕೆ ಸ್ಟಟಿೊಂ",
                "stop_id": "22420",
                "lat": 13.01206,
                "lon": 77.66785
              },
              {
                "name": "Ramamurthy Nagara Manipal",
                "name_kn": "ರಮಮುರ್ತೆ ನಗರ ಮನಿಪಲ್",
                "stop_id": "22418",
                "lat": 13.01172,
                "lon": 77.67031
              },
              {
                "name": "Yarayyanapalya",
                "name_kn": "ಯರಯೆನಪಲೆ",
                "stop_id": "22632",
                "lat": 13.01157,
                "lon": 77.67326
              },
              {
                "name": "Ramamurthy Nagara Alada Mara",
                "name_kn": "ರಮಮುರ್ತೆ ನಗರ ಲದ ಮರ",
                "stop_id": "22414",
                "lat": 13.01146,
                "lon": 77.67644
              },
              {
                "name": "Ramamurthy Nagara Church",
                "name_kn": "ರಮಮುರ್ತೆ ನಗರ ಚುರ್ಚ್",
                "stop_id": "22416",
                "lat": 13.01177,
                "lon": 77.67878
              },
              {
                "name": "ITI Circle",
                "name_kn": "ಇಟಿ ಕಿರ್ಕ್ಲೆ",
                "stop_id": "22084",
                "lat": 13.0079,
                "lon": 77.68338
              },
              {
                "name": "ITI Colony Gate",
                "name_kn": "ಇಟಿ ಕೊಲೊನೆ ಗಟೆ",
                "stop_id": "22086",
                "lat": 13.00516,
                "lon": 77.6849
              },
              {
                "name": "KR Pura Market",
                "name_kn": "ಕ್ರ್ ಪುರ ಮರ್ಕೆಟ್",
                "stop_id": "22206",
                "lat": 13.00821,
                "lon": 77.69535
              },
              {
                "name": "KR Pura Govt Hospital",
                "name_kn": "ಕ್ರ್ ಪುರ ಗೊವ್ಟ್ ಹೊಸ್ಪಿಟಲ್",
                "stop_id": "20946",
                "lat": 13.00798,
                "lon": 77.69271
              }
            ]
          },
          {
            "Route": "500-DJ DOWN",
            "RouteId": 3040,
            "RouteParentId": 1722,
            "Destination": "Yeshawanthapura Bus Station",
            "Via": "",
            "Area": "Central Silk Board",
            "PlatformNumber": "2A",
            "KannadaDestination": "ಯೆಶವಂತಪುರ ಬುಸ್ ಸ್ಟಟಿೊಂ",
            "KannadaArea": "ಕೇಂದ್ರ ರೇಷ್ಮೆ ಮಂಡಳಿ",
            "KannadaVia": "",
            "FromStationId": 20707,
            "Stops": [
              {
                "name": "Central Silk Board",
                "name_kn": "ಕೆಂಟ್ರಲ್ ಸಿಲ್ಕ್ ಬೊರ್ದ್",
                "stop_id": "20707",
                "lat": 12.91803,
                "lon": 77.62355
              },
              {
                "name": "SI Apartment HSR Layout",
                "name_kn": "ಸಿ ಪರ್ಟ್ಮೆಂಟ್ ಹ್ಸ್ರ್ ಲಯೌಟ್",
                "stop_id": "21177",
                "lat": 12.91677,
                "lon": 77.62942
              },
              {
                "name": "14th Main HSR Layout",
                "name_kn": "14ತ್ ಮೈಂ ಹ್ಸ್ರ್ ಲಯೌಟ್",
                "stop_id": "20568",
                "lat": 12.91637,
                "lon": 77.63472
              },
              {
                "name": "Depot-25 Gate",
                "name_kn": "ದೆಪೊಟ್-25 ಗಟೆ",
                "stop_id": "20749",
                "lat": 12.91936,
                "lon": 77.64255
              },
              {
                "name": "Agara Junction",
                "name_kn": "ಅಗರ ಜುಂಕ್ಟಿೊಂ",
                "stop_id": "20598",
                "lat": 12.92452,
                "lon": 77.65028
              },
              {
                "name": "Ibbaluru",
                "name_kn": "ಇಬ್ಬಲುರು",
                "stop_id": "20851",
                "lat": 12.9216,
                "lon": 77.66176
              },
              {
                "name": "Sarjapura Ring Road Junction",
                "name_kn": "ಸರ್ಜಪುರ ರಿಙ್ ರೊದ್ ಜುಂಕ್ಟಿೊಂ",
                "stop_id": "20889",
                "lat": 12.92113,
                "lon": 77.66604
              },
              {
                "name": "Bellanduru Petrol Bunk",
                "name_kn": "ಬೆಲ್ಲಂದುರು ಪೆಟ್ರೊಲ್ ಬುಂಕ್",
                "stop_id": "21092",
                "lat": 12.92322,
                "lon": 77.6702
              },
              {
                "name": "Bellanduru City light Apartment",
                "name_kn": "ಬೆಲ್ಲಂದುರು ಕಿಟೆ ಲಿಘ್ಟ್ ಪರ್ಟ್ಮೆಂಟ್",
                "stop_id": "20638",
                "lat": 12.92493,
                "lon": 77.67394
              },
              {
                "name": "Eco Space",
                "name_kn": "ಎಕೊ ಸ್ಪಕೆ",
                "stop_id": "20771",
                "lat": 12.92838,
                "lon": 77.6812
              },
              {
                "name": "Devarabisanahalli Ring Road",
                "name_kn": "ದೆವರಬಿಸನಹಲ್ಲಿ ರಿಙ್ ರೊದ್",
                "stop_id": "20754",
                "lat": 12.93218,
                "lon": 77.68729
              },
              {
                "name": "New Horizon College",
                "name_kn": "ನೆವ್ ಹೊರಿಜ಼ೊಂ ಕೊಲ್ಲೆಗೆ",
                "stop_id": "21059",
                "lat": 12.93516,
                "lon": 77.69063
              },
              {
                "name": "Kadubisanahalli",
                "name_kn": "ಕದುಬಿಸನಹಲ್ಲಿ",
                "stop_id": "20895",
                "lat": 12.94259,
                "lon": 77.69704
              },
              {
                "name": "Multiplex Marathahalli",
                "name_kn": "ಮುಲ್ಟಿಪ್ಲೆಕ್ಸ್ ಮರತಹಲ್ಲಿ",
                "stop_id": "21032",
                "lat": 12.95153,
                "lon": 77.69973
              },
              {
                "name": "Kalamandira Marathahalli Bridge",
                "name_kn": "ಕಲಮಂದಿರ ಮರತಹಲ್ಲಿ ಬ್ರಿದ್ಗೆ",
                "stop_id": "22670",
                "lat": 12.96038,
                "lon": 77.70135
              },
              {
                "name": "Karthik Nagara",
                "name_kn": "ಕರ್ತಿಕ್ ನಗರ",
                "stop_id": "20913",
                "lat": 12.96825,
                "lon": 77.70153
              },
              {
                "name": "Dodda Nekkundi Bridge/Rainbow Hospital",
                "name_kn": "ದೊದ್ದ ನೆಕ್ಕುಂದಿ ಬ್ರಿದ್ಗೆ/ರೈಂಬೌ ಹೊಸ್ಪಿಟಲ್",
                "stop_id": "20761",
                "lat": 12.97565,
                "lon": 77.697
              },
              {
                "name": "EMC2",
                "name_kn": "ಎಂಕ್2",
                "stop_id": "20775",
                "lat": 12.98239,
                "lon": 77.69288
              },
              {
                "name": "Mahadevapura Ring Road",
                "name_kn": "ಮಹದೆವಪುರ ರಿಙ್ ರೊದ್",
                "stop_id": "20978",
                "lat": 12.98868,
                "lon": 77.68904
              },
              {
                "name": "B Narayanapura Ring Road",
                "name_kn": "ಬ್ ನರಯನಪುರ ರಿಙ್ ರೊದ್",
                "stop_id": "20616",
                "lat": 12.99589,
                "lon": 77.68387
              },
              {
                "name": "KR Pura Railway Station",
                "name_kn": "ಕ್ರ್ ಪುರ ರೈಲ್ವಯ್ ಸ್ಟಟಿೊಂ",
                "stop_id": "21113",
                "lat": 12.99998,
                "lon": 77.67654
              },
              {
                "name": "Tin Factory",
                "name_kn": "ಟಿಂ ೞಕ್ಟೊರೆ",
                "stop_id": "21228",
                "lat": 12.99645,
                "lon": 77.66857
              },
              {
                "name": "Kasthurinagara",
                "name_kn": "ಕಸ್ತುರಿನಗರ",
                "stop_id": "20915",
                "lat": 13.00404,
                "lon": 77.66315
              },
              {
                "name": "B Channasandra Bridge(Ramamurthy Nagara Ring Road)",
                "name_kn": "ಬ್ ಚಂನಸಂದ್ರ ಬ್ರಿದ್ಗೆ(ರಮಮುರ್ತೆ ನಗರ ರಿಙ್ ರೊದ್)",
                "stop_id": "22651",
                "lat": 13.01124,
                "lon": 77.66226
              },
              {
                "name": "Vijaya Bank Colony Ring Road",
                "name_kn": "ವಿಜಯ ಬಂಕ್ ಕೊಲೊನೆ ರಿಙ್ ರೊದ್",
                "stop_id": "21264",
                "lat": 13.01695,
                "lon": 77.66021
              },
              {
                "name": "Horamavu Signal",
                "name_kn": "ಹೊರಮವು ಸಿಗ್ನಲ್",
                "stop_id": "20839",
                "lat": 13.01961,
                "lon": 77.65385
              },
              {
                "name": "Babusabpalya",
                "name_kn": "ಬಬುಸಬ್ಪಲೆ",
                "stop_id": "20617",
                "lat": 13.0226,
                "lon": 77.64702
              },
              {
                "name": "Kalyananagara",
                "name_kn": "ಕಲೆನನಗರ",
                "stop_id": "20904",
                "lat": 13.0264,
                "lon": 77.63642
              },
              {
                "name": "Hennur Junction",
                "name_kn": "ಹೆಂನುರ್ ಜುಂಕ್ಟಿೊಂ",
                "stop_id": "21528",
                "lat": 13.02948,
                "lon": 77.63125
              },
              {
                "name": "HBR Layout",
                "name_kn": "ಹ್ಬ್ರ್ ಲಯೌಟ್",
                "stop_id": "20816",
                "lat": 13.035,
                "lon": 77.62849
              },
              {
                "name": "Nagawara Junction",
                "name_kn": "ನಗವರ ಜುಂಕ್ಟಿೊಂ",
                "stop_id": "20885",
                "lat": 13.04046,
                "lon": 77.62408
              },
              {
                "name": "Manyatha Tech Park",
                "name_kn": "ಮನೆತ ಟೆಚ್ ಪರ್ಕ್",
                "stop_id": "20999",
                "lat": 13.04106,
                "lon": 77.61999
              },
              {
                "name": "Veerannapalya",
                "name_kn": "ವೀರಂನಪಲೆ",
                "stop_id": "21252",
                "lat": 13.04217,
                "lon": 77.61352
              },
              {
                "name": "Kempapura",
                "name_kn": "ಕೆಂಪಪುರ",
                "stop_id": "20920",
                "lat": 13.0436,
                "lon": 77.60121
              },
              {
                "name": "Hebbala Bridge",
                "name_kn": "ಹೆಬ್ಬಲ ಬ್ರಿದ್ಗೆ",
                "stop_id": "21527",
                "lat": 13.04274,
                "lon": 77.58967
              },
              {
                "name": "Bhadrappa Layout",
                "name_kn": "ಭದ್ರಪ್ಪ ಲಯೌಟ್",
                "stop_id": "20659",
                "lat": 13.0472,
                "lon": 77.57339
              },
              {
                "name": "Devinagara Cross",
                "name_kn": "ದೆವಿನಗರ ಕ್ರೊಸ್ಸ್",
                "stop_id": "20758",
                "lat": 13.04689,
                "lon": 77.5692
              },
              {
                "name": "Kuvempu Circle",
                "name_kn": "ಕುವೆಂಪು ಕಿರ್ಕ್ಲೆ",
                "stop_id": "20962",
                "lat": 13.04457,
                "lon": 77.56281
              },
              {
                "name": "BEL Circle",
                "name_kn": "ಬೆಲ್ ಕಿರ್ಕ್ಲೆ",
                "stop_id": "29841",
                "lat": 13.04339,
                "lon": 77.55713
              },
              {
                "name": "Gokula",
                "name_kn": "ಗೊಕುಲ",
                "stop_id": "21968",
                "lat": 13.04152,
                "lon": 77.55725
              },
              {
                "name": "Mathikere",
                "name_kn": "ಮತಿಕೆರೆ",
                "stop_id": "22276",
                "lat": 13.03467,
                "lon": 77.55748
              },
              {
                "name": "MS Ramaiah College",
                "name_kn": "ಂಸ್ ರಮೈಹ್ ಕೊಲ್ಲೆಗೆ",
                "stop_id": "22306",
                "lat": 13.02867,
                "lon": 77.56161
              },
              {
                "name": "Diwanarapalya",
                "name_kn": "ದಿವನರಪಲೆ",
                "stop_id": "21899",
                "lat": 13.02677,
                "lon": 77.56181
              },
              {
                "name": "Ayyappa Temple Yeshawanthapura",
                "name_kn": "ಅಯೆಪ್ಪ ಟೆಂಪ್ಲೆ ಯೆಶವಂತಪುರ",
                "stop_id": "21690",
                "lat": 13.02164,
                "lon": 77.56317
              },
              {
                "name": "Yeshawanthapura Tollgate",
                "name_kn": "ಯೆಶವಂತಪುರ ಟೊಲ್ಲ್ಗಟೆ",
                "stop_id": "22647",
                "lat": 13.0179,
                "lon": 77.56099
              },
              {
                "name": "Yeshawanthapura Bus Station",
                "name_kn": "ಯೆಶವಂತಪುರ ಬುಸ್ ಸ್ಟಟಿೊಂ",
                "stop_id": "21288",
                "lat": 13.01801,
                "lon": 77.55662
              }
            ]
          },
          {
            "Route": "500-QD UP",
            "RouteId": 3094,
            "RouteParentId": 1752,
            "Destination": "Chowdeshwarinagara JP Park",
            "Via": "",
            "Area": "Central Silk Board",
            "PlatformNumber": "2A",
            "KannadaDestination": "ಚೌದೆಶ್ವರಿನಗರ ಜ್ಪ್ ಪರ್ಕ್",
            "KannadaArea": "ಕೇಂದ್ರ ರೇಷ್ಮೆ ಮಂಡಳಿ",
            "KannadaVia": "",
            "FromStationId": 20707,
            "Stops": [
              {
                "name": "Central Silk Board",
                "name_kn": "ಕೆಂಟ್ರಲ್ ಸಿಲ್ಕ್ ಬೊರ್ದ್",
                "stop_id": "20707",
                "lat": 12.91803,
                "lon": 77.62355
              },
              {
                "name": "SI Apartment HSR Layout",
                "name_kn": "ಸಿ ಪರ್ಟ್ಮೆಂಟ್ ಹ್ಸ್ರ್ ಲಯೌಟ್",
                "stop_id": "21177",
                "lat": 12.91677,
                "lon": 77.62942
              },
              {
                "name": "14th Main HSR Layout",
                "name_kn": "14ತ್ ಮೈಂ ಹ್ಸ್ರ್ ಲಯೌಟ್",
                "stop_id": "20568",
                "lat": 12.91637,
                "lon": 77.63472
              },
              {
                "name": "Depot-25 Gate",
                "name_kn": "ದೆಪೊಟ್-25 ಗಟೆ",
                "stop_id": "20749",
                "lat": 12.91936,
                "lon": 77.64255
              },
              {
                "name": "Agara Junction",
                "name_kn": "ಅಗರ ಜುಂಕ್ಟಿೊಂ",
                "stop_id": "20598",
                "lat": 12.92452,
                "lon": 77.65028
              },
              {
                "name": "Ibbaluru",
                "name_kn": "ಇಬ್ಬಲುರು",
                "stop_id": "20851",
                "lat": 12.9216,
                "lon": 77.66176
              },
              {
                "name": "Sarjapura Ring Road Junction",
                "name_kn": "ಸರ್ಜಪುರ ರಿಙ್ ರೊದ್ ಜುಂಕ್ಟಿೊಂ",
                "stop_id": "20889",
                "lat": 12.92113,
                "lon": 77.66604
              },
              {
                "name": "Bellanduru Petrol Bunk",
                "name_kn": "ಬೆಲ್ಲಂದುರು ಪೆಟ್ರೊಲ್ ಬುಂಕ್",
                "stop_id": "21092",
                "lat": 12.92322,
                "lon": 77.6702
              },
              {
                "name": "Bellanduru City light Apartment",
                "name_kn": "ಬೆಲ್ಲಂದುರು ಕಿಟೆ ಲಿಘ್ಟ್ ಪರ್ಟ್ಮೆಂಟ್",
                "stop_id": "20638",
                "lat": 12.92493,
                "lon": 77.67394
              },
              {
                "name": "Eco Space",
                "name_kn": "ಎಕೊ ಸ್ಪಕೆ",
                "stop_id": "20771",
                "lat": 12.92838,
                "lon": 77.6812
              },
              {
                "name": "Devarabisanahalli Ring Road",
                "name_kn": "ದೆವರಬಿಸನಹಲ್ಲಿ ರಿಙ್ ರೊದ್",
                "stop_id": "20754",
                "lat": 12.93218,
                "lon": 77.68729
              },
              {
                "name": "New Horizon College",
                "name_kn": "ನೆವ್ ಹೊರಿಜ಼ೊಂ ಕೊಲ್ಲೆಗೆ",
                "stop_id": "21059",
                "lat": 12.93516,
                "lon": 77.69063
              },
              {
                "name": "Kadubisanahalli",
                "name_kn": "ಕದುಬಿಸನಹಲ್ಲಿ",
                "stop_id": "20895",
                "lat": 12.94259,
                "lon": 77.69704
              },
              {
                "name": "Multiplex Marathahalli",
                "name_kn": "ಮುಲ್ಟಿಪ್ಲೆಕ್ಸ್ ಮರತಹಲ್ಲಿ",
                "stop_id": "21032",
                "lat": 12.95153,
                "lon": 77.69973
              },
              {
                "name": "Kalamandira Marathahalli Bridge",
                "name_kn": "ಕಲಮಂದಿರ ಮರತಹಲ್ಲಿ ಬ್ರಿದ್ಗೆ",
                "stop_id": "22670",
                "lat": 12.96038,
                "lon": 77.70135
              },
              {
                "name": "Karthik Nagara",
                "name_kn": "ಕರ್ತಿಕ್ ನಗರ",
                "stop_id": "20913",
                "lat": 12.96825,
                "lon": 77.70153
              },
              {
                "name": "Dodda Nekkundi Bridge/Rainbow Hospital",
                "name_kn": "ದೊದ್ದ ನೆಕ್ಕುಂದಿ ಬ್ರಿದ್ಗೆ/ರೈಂಬೌ ಹೊಸ್ಪಿಟಲ್",
                "stop_id": "20761",
                "lat": 12.97565,
                "lon": 77.697
              },
              {
                "name": "EMC2",
                "name_kn": "ಎಂಕ್2",
                "stop_id": "20775",
                "lat": 12.98239,
                "lon": 77.69288
              },
              {
                "name": "Mahadevapura Ring Road",
                "name_kn": "ಮಹದೆವಪುರ ರಿಙ್ ರೊದ್",
                "stop_id": "20978",
                "lat": 12.98868,
                "lon": 77.68904
              },
              {
                "name": "B Narayanapura Ring Road",
                "name_kn": "ಬ್ ನರಯನಪುರ ರಿಙ್ ರೊದ್",
                "stop_id": "20616",
                "lat": 12.99589,
                "lon": 77.68387
              },
              {
                "name": "KR Pura Railway Station",
                "name_kn": "ಕ್ರ್ ಪುರ ರೈಲ್ವಯ್ ಸ್ಟಟಿೊಂ",
                "stop_id": "21113",
                "lat": 12.99998,
                "lon": 77.67654
              },
              {
                "name": "Tin Factory",
                "name_kn": "ಟಿಂ ೞಕ್ಟೊರೆ",
                "stop_id": "21228",
                "lat": 12.99645,
                "lon": 77.66857
              },
              {
                "name": "Kasthurinagara",
                "name_kn": "ಕಸ್ತುರಿನಗರ",
                "stop_id": "20915",
                "lat": 13.00404,
                "lon": 77.66315
              },
              {
                "name": "B Channasandra Bridge(Ramamurthy Nagara Ring Road)",
                "name_kn": "ಬ್ ಚಂನಸಂದ್ರ ಬ್ರಿದ್ಗೆ(ರಮಮುರ್ತೆ ನಗರ ರಿಙ್ ರೊದ್)",
                "stop_id": "22651",
                "lat": 13.01124,
                "lon": 77.66226
              },
              {
                "name": "Vijaya Bank Colony Ring Road",
                "name_kn": "ವಿಜಯ ಬಂಕ್ ಕೊಲೊನೆ ರಿಙ್ ರೊದ್",
                "stop_id": "21264",
                "lat": 13.01695,
                "lon": 77.66021
              },
              {
                "name": "Horamavu Signal",
                "name_kn": "ಹೊರಮವು ಸಿಗ್ನಲ್",
                "stop_id": "20839",
                "lat": 13.01961,
                "lon": 77.65385
              },
              {
                "name": "Babusabpalya",
                "name_kn": "ಬಬುಸಬ್ಪಲೆ",
                "stop_id": "20617",
                "lat": 13.0226,
                "lon": 77.64702
              },
              {
                "name": "Kalyananagara",
                "name_kn": "ಕಲೆನನಗರ",
                "stop_id": "20904",
                "lat": 13.0264,
                "lon": 77.63642
              },
              {
                "name": "Hennur Junction",
                "name_kn": "ಹೆಂನುರ್ ಜುಂಕ್ಟಿೊಂ",
                "stop_id": "21528",
                "lat": 13.02948,
                "lon": 77.63125
              },
              {
                "name": "HBR Layout",
                "name_kn": "ಹ್ಬ್ರ್ ಲಯೌಟ್",
                "stop_id": "20816",
                "lat": 13.035,
                "lon": 77.62849
              },
              {
                "name": "Nagawara Junction",
                "name_kn": "ನಗವರ ಜುಂಕ್ಟಿೊಂ",
                "stop_id": "20885",
                "lat": 13.04046,
                "lon": 77.62408
              },
              {
                "name": "Manyatha Tech Park",
                "name_kn": "ಮನೆತ ಟೆಚ್ ಪರ್ಕ್",
                "stop_id": "20999",
                "lat": 13.04106,
                "lon": 77.61999
              },
              {
                "name": "Veerannapalya",
                "name_kn": "ವೀರಂನಪಲೆ",
                "stop_id": "21252",
                "lat": 13.04217,
                "lon": 77.61352
              },
              {
                "name": "Kempapura",
                "name_kn": "ಕೆಂಪಪುರ",
                "stop_id": "20920",
                "lat": 13.0436,
                "lon": 77.60121
              },
              {
                "name": "Hebbala Bridge",
                "name_kn": "ಹೆಬ್ಬಲ ಬ್ರಿದ್ಗೆ",
                "stop_id": "21527",
                "lat": 13.04274,
                "lon": 77.58967
              },
              {
                "name": "Bhadrappa Layout",
                "name_kn": "ಭದ್ರಪ್ಪ ಲಯೌಟ್",
                "stop_id": "20659",
                "lat": 13.0472,
                "lon": 77.57339
              },
              {
                "name": "Devinagara Cross",
                "name_kn": "ದೆವಿನಗರ ಕ್ರೊಸ್ಸ್",
                "stop_id": "20758",
                "lat": 13.04689,
                "lon": 77.5692
              },
              {
                "name": "Kuvempu Circle",
                "name_kn": "ಕುವೆಂಪು ಕಿರ್ಕ್ಲೆ",
                "stop_id": "20962",
                "lat": 13.04457,
                "lon": 77.56281
              },
              {
                "name": "BEL Circle",
                "name_kn": "ಬೆಲ್ ಕಿರ್ಕ್ಲೆ",
                "stop_id": "29841",
                "lat": 13.04339,
                "lon": 77.55713
              },
              {
                "name": "Gokula",
                "name_kn": "ಗೊಕುಲ",
                "stop_id": "21968",
                "lat": 13.04152,
                "lon": 77.55725
              },
              {
                "name": "Mathikere",
                "name_kn": "ಮತಿಕೆರೆ",
                "stop_id": "33881",
                "lat": 13.03534,
                "lon": 77.55758
              },
              {
                "name": "Chowdeshwarinagara JP Park",
                "name_kn": "ಚೌದೆಶ್ವರಿನಗರ ಜ್ಪ್ ಪರ್ಕ್",
                "stop_id": "24270",
                "lat": 13.03272,
                "lon": 77.55408
              }
            ]
          },
          {
            "Route": "500-FB UP",
            "RouteId": 5151,
            "RouteParentId": 2814,
            "Destination": "Kadugodi Bus Station",
            "Via": "",
            "Area": "Central Silk Board",
            "PlatformNumber": "2A",
            "KannadaDestination": "ಕದುಗೊದಿ ಬುಸ್ ಸ್ಟಟಿೊಂ",
            "KannadaArea": "ಕೇಂದ್ರ ರೇಷ್ಮೆ ಮಂಡಳಿ",
            "KannadaVia": "",
            "FromStationId": 20707,
            "Stops": [
              {
                "name": "Central Silk Board",
                "name_kn": "ಕೆಂಟ್ರಲ್ ಸಿಲ್ಕ್ ಬೊರ್ದ್",
                "stop_id": "20707",
                "lat": 12.91803,
                "lon": 77.62355
              },
              {
                "name": "SI Apartment HSR Layout",
                "name_kn": "ಸಿ ಪರ್ಟ್ಮೆಂಟ್ ಹ್ಸ್ರ್ ಲಯೌಟ್",
                "stop_id": "21177",
                "lat": 12.91677,
                "lon": 77.62942
              },
              {
                "name": "14th Main HSR Layout",
                "name_kn": "14ತ್ ಮೈಂ ಹ್ಸ್ರ್ ಲಯೌಟ್",
                "stop_id": "20568",
                "lat": 12.91637,
                "lon": 77.63472
              },
              {
                "name": "Depot-25 Gate",
                "name_kn": "ದೆಪೊಟ್-25 ಗಟೆ",
                "stop_id": "20749",
                "lat": 12.91936,
                "lon": 77.64255
              },
              {
                "name": "Agara Junction",
                "name_kn": "ಅಗರ ಜುಂಕ್ಟಿೊಂ",
                "stop_id": "20598",
                "lat": 12.92452,
                "lon": 77.65028
              },
              {
                "name": "Ibbaluru",
                "name_kn": "ಇಬ್ಬಲುರು",
                "stop_id": "20851",
                "lat": 12.9216,
                "lon": 77.66176
              },
              {
                "name": "Sarjapura Ring Road Junction",
                "name_kn": "ಸರ್ಜಪುರ ರಿಙ್ ರೊದ್ ಜುಂಕ್ಟಿೊಂ",
                "stop_id": "20889",
                "lat": 12.92113,
                "lon": 77.66604
              },
              {
                "name": "Bellanduru Petrol Bunk",
                "name_kn": "ಬೆಲ್ಲಂದುರು ಪೆಟ್ರೊಲ್ ಬುಂಕ್",
                "stop_id": "21092",
                "lat": 12.92322,
                "lon": 77.6702
              },
              {
                "name": "Bellanduru City light Apartment",
                "name_kn": "ಬೆಲ್ಲಂದುರು ಕಿಟೆ ಲಿಘ್ಟ್ ಪರ್ಟ್ಮೆಂಟ್",
                "stop_id": "20638",
                "lat": 12.92493,
                "lon": 77.67394
              },
              {
                "name": "Eco Space",
                "name_kn": "ಎಕೊ ಸ್ಪಕೆ",
                "stop_id": "20771",
                "lat": 12.92838,
                "lon": 77.6812
              },
              {
                "name": "Devarabisanahalli Ring Road",
                "name_kn": "ದೆವರಬಿಸನಹಲ್ಲಿ ರಿಙ್ ರೊದ್",
                "stop_id": "20754",
                "lat": 12.93218,
                "lon": 77.68729
              },
              {
                "name": "New Horizon College",
                "name_kn": "ನೆವ್ ಹೊರಿಜ಼ೊಂ ಕೊಲ್ಲೆಗೆ",
                "stop_id": "21059",
                "lat": 12.93516,
                "lon": 77.69063
              },
              {
                "name": "Kadubisanahalli",
                "name_kn": "ಕದುಬಿಸನಹಲ್ಲಿ",
                "stop_id": "20895",
                "lat": 12.94259,
                "lon": 77.69704
              },
              {
                "name": "Multiplex Marathahalli",
                "name_kn": "ಮುಲ್ಟಿಪ್ಲೆಕ್ಸ್ ಮರತಹಲ್ಲಿ",
                "stop_id": "21032",
                "lat": 12.95153,
                "lon": 77.69973
              },
              {
                "name": "Kalamandira Marathahalli Bridge",
                "name_kn": "ಕಲಮಂದಿರ ಮರತಹಲ್ಲಿ ಬ್ರಿದ್ಗೆ",
                "stop_id": "22670",
                "lat": 12.96038,
                "lon": 77.70135
              },
              {
                "name": "Marathahalli Bridge",
                "name_kn": "ಮರತಹಲ್ಲಿ ಬ್ರಿದ್ಗೆ",
                "stop_id": "22668",
                "lat": 12.9569,
                "lon": 77.70215
              },
              {
                "name": "Munnekolalu Cross (Spice Garden)",
                "name_kn": "ಮುಂನೆಕೊಲಲು ಕ್ರೊಸ್ಸ್ (ಸ್ಪಿಕೆ ಗರ್ದೆಂ)",
                "stop_id": "21038",
                "lat": 12.9564,
                "lon": 77.70927
              },
              {
                "name": "Kundalahalli Gate",
                "name_kn": "ಕುಂದಲಹಲ್ಲಿ ಗಟೆ",
                "stop_id": "22215",
                "lat": 12.95593,
                "lon": 77.71574
              },
              {
                "name": "Thubarahalli",
                "name_kn": "ತುಬರಹಲ್ಲಿ",
                "stop_id": "22557",
                "lat": 12.95592,
                "lon": 77.72057
              },
              {
                "name": "Siddapura",
                "name_kn": "ಸಿದ್ದಪುರ",
                "stop_id": "22487",
                "lat": 12.95634,
                "lon": 77.73191
              },
              {
                "name": "Ramagondanahalli",
                "name_kn": "ರಮಗೊಂದನಹಲ್ಲಿ",
                "stop_id": "22412",
                "lat": 12.95704,
                "lon": 77.74039
              },
              {
                "name": "Varthur kodi",
                "name_kn": "ವರ್ತುರ್ ಕೊದಿ",
                "stop_id": "22577",
                "lat": 12.95897,
                "lon": 77.74642
              },
              {
                "name": "Forum Mall",
                "name_kn": "ೞೊರುಂ ಮಲ್ಲ್",
                "stop_id": "21942",
                "lat": 12.95977,
                "lon": 77.74683
              },
              {
                "name": "Brooke Bond",
                "name_kn": "ಬ್ರೂಕೆ ಬೊಂದ್",
                "stop_id": "21784",
                "lat": 12.96392,
                "lon": 77.74833
              },
              {
                "name": "White Field Post Office",
                "name_kn": "ವ್ಹಿಟೆ ೞಿೆಲ್ದ್ ಪೊಸ್ಟ್ ೊೞ್ೞಿಕೆ",
                "stop_id": "22621",
                "lat": 12.97056,
                "lon": 77.75
              },
              {
                "name": "Sai Baba General Hospital",
                "name_kn": "ಸೈ ಬಬ ಗೆನೆರಲ್ ಹೊಸ್ಪಿಟಲ್",
                "stop_id": "22442",
                "lat": 12.97383,
                "lon": 77.75042
              },
              {
                "name": "Munish Singh Hospital",
                "name_kn": "ಮುನಿಶ್ ಸಿಙ್ಹ್ ಹೊಸ್ಪಿಟಲ್",
                "stop_id": "22315",
                "lat": 12.97703,
                "lon": 77.75104
              },
              {
                "name": "Coffee Day Hope Farm",
                "name_kn": "ಕೊೞ್ೞೀ ದಯ್ ಹೊಪೆ ೞರ್ಂ",
                "stop_id": "38049",
                "lat": 12.97998,
                "lon": 77.75162
              },
              {
                "name": "Hope Farm",
                "name_kn": "ಹೊಪೆ ೞರ್ಂ",
                "stop_id": "20836",
                "lat": 12.98429,
                "lon": 77.75261
              },
              {
                "name": "Kadugodi Bridge",
                "name_kn": "ಕದುಗೊದಿ ಬ್ರಿದ್ಗೆ",
                "stop_id": "20901",
                "lat": 12.99448,
                "lon": 77.75769
              },
              {
                "name": "Kadugodi Bus Station",
                "name_kn": "ಕದುಗೊದಿ ಬುಸ್ ಸ್ಟಟಿೊಂ",
                "stop_id": "20902",
                "lat": 12.99563,
                "lon": 77.75855
              }
            ]
          },
          {
            "Route": "500-DG DOWN",
            "RouteId": 5461,
            "RouteParentId": 2973,
            "Destination": "Nelamangala Bus Station",
            "Via": "",
            "Area": "Central Silk Board",
            "PlatformNumber": "2A",
            "KannadaDestination": "ನೆಲಮಙಲ ಬುಸ್ ಸ್ಟಟಿೊಂ",
            "KannadaArea": "ಕೇಂದ್ರ ರೇಷ್ಮೆ ಮಂಡಳಿ",
            "KannadaVia": "",
            "FromStationId": 20707,
            "Stops": [
              {
                "name": "Central Silk Board",
                "name_kn": "ಕೆಂಟ್ರಲ್ ಸಿಲ್ಕ್ ಬೊರ್ದ್",
                "stop_id": "20707",
                "lat": 12.91803,
                "lon": 77.62355
              },
              {
                "name": "SI Apartment HSR Layout",
                "name_kn": "ಸಿ ಪರ್ಟ್ಮೆಂಟ್ ಹ್ಸ್ರ್ ಲಯೌಟ್",
                "stop_id": "21177",
                "lat": 12.91677,
                "lon": 77.62942
              },
              {
                "name": "14th Main HSR Layout",
                "name_kn": "14ತ್ ಮೈಂ ಹ್ಸ್ರ್ ಲಯೌಟ್",
                "stop_id": "20568",
                "lat": 12.91637,
                "lon": 77.63472
              },
              {
                "name": "Depot-25 Gate",
                "name_kn": "ದೆಪೊಟ್-25 ಗಟೆ",
                "stop_id": "20749",
                "lat": 12.91936,
                "lon": 77.64255
              },
              {
                "name": "Agara Junction",
                "name_kn": "ಅಗರ ಜುಂಕ್ಟಿೊಂ",
                "stop_id": "20598",
                "lat": 12.92452,
                "lon": 77.65028
              },
              {
                "name": "Ibbaluru",
                "name_kn": "ಇಬ್ಬಲುರು",
                "stop_id": "20851",
                "lat": 12.9216,
                "lon": 77.66176
              },
              {
                "name": "Sarjapura Ring Road Junction",
                "name_kn": "ಸರ್ಜಪುರ ರಿಙ್ ರೊದ್ ಜುಂಕ್ಟಿೊಂ",
                "stop_id": "20889",
                "lat": 12.92113,
                "lon": 77.66604
              },
              {
                "name": "Bellanduru Petrol Bunk",
                "name_kn": "ಬೆಲ್ಲಂದುರು ಪೆಟ್ರೊಲ್ ಬುಂಕ್",
                "stop_id": "21092",
                "lat": 12.92322,
                "lon": 77.6702
              },
              {
                "name": "Bellanduru City light Apartment",
                "name_kn": "ಬೆಲ್ಲಂದುರು ಕಿಟೆ ಲಿಘ್ಟ್ ಪರ್ಟ್ಮೆಂಟ್",
                "stop_id": "20638",
                "lat": 12.92493,
                "lon": 77.67394
              },
              {
                "name": "Eco Space",
                "name_kn": "ಎಕೊ ಸ್ಪಕೆ",
                "stop_id": "20771",
                "lat": 12.92838,
                "lon": 77.6812
              },
              {
                "name": "Devarabisanahalli Ring Road",
                "name_kn": "ದೆವರಬಿಸನಹಲ್ಲಿ ರಿಙ್ ರೊದ್",
                "stop_id": "20754",
                "lat": 12.93218,
                "lon": 77.68729
              },
              {
                "name": "New Horizon College",
                "name_kn": "ನೆವ್ ಹೊರಿಜ಼ೊಂ ಕೊಲ್ಲೆಗೆ",
                "stop_id": "21059",
                "lat": 12.93516,
                "lon": 77.69063
              },
              {
                "name": "Kadubisanahalli",
                "name_kn": "ಕದುಬಿಸನಹಲ್ಲಿ",
                "stop_id": "20895",
                "lat": 12.94259,
                "lon": 77.69704
              },
              {
                "name": "Multiplex Marathahalli",
                "name_kn": "ಮುಲ್ಟಿಪ್ಲೆಕ್ಸ್ ಮರತಹಲ್ಲಿ",
                "stop_id": "21032",
                "lat": 12.95153,
                "lon": 77.69973
              },
              {
                "name": "Kalamandira Marathahalli Bridge",
                "name_kn": "ಕಲಮಂದಿರ ಮರತಹಲ್ಲಿ ಬ್ರಿದ್ಗೆ",
                "stop_id": "22670",
                "lat": 12.96038,
                "lon": 77.70135
              },
              {
                "name": "Karthik Nagara",
                "name_kn": "ಕರ್ತಿಕ್ ನಗರ",
                "stop_id": "20913",
                "lat": 12.96825,
                "lon": 77.70153
              },
              {
                "name": "Dodda Nekkundi Bridge/Rainbow Hospital",
                "name_kn": "ದೊದ್ದ ನೆಕ್ಕುಂದಿ ಬ್ರಿದ್ಗೆ/ರೈಂಬೌ ಹೊಸ್ಪಿಟಲ್",
                "stop_id": "20761",
                "lat": 12.97565,
                "lon": 77.697
              },
              {
                "name": "EMC2",
                "name_kn": "ಎಂಕ್2",
                "stop_id": "20775",
                "lat": 12.98239,
                "lon": 77.69288
              },
              {
                "name": "Mahadevapura Ring Road",
                "name_kn": "ಮಹದೆವಪುರ ರಿಙ್ ರೊದ್",
                "stop_id": "20978",
                "lat": 12.98868,
                "lon": 77.68904
              },
              {
                "name": "B Narayanapura Ring Road",
                "name_kn": "ಬ್ ನರಯನಪುರ ರಿಙ್ ರೊದ್",
                "stop_id": "20616",
                "lat": 12.99589,
                "lon": 77.68387
              },
              {
                "name": "KR Pura Railway Station",
                "name_kn": "ಕ್ರ್ ಪುರ ರೈಲ್ವಯ್ ಸ್ಟಟಿೊಂ",
                "stop_id": "21113",
                "lat": 12.99998,
                "lon": 77.67654
              },
              {
                "name": "Tin Factory",
                "name_kn": "ಟಿಂ ೞಕ್ಟೊರೆ",
                "stop_id": "21228",
                "lat": 12.99645,
                "lon": 77.66857
              },
              {
                "name": "Kasthurinagara",
                "name_kn": "ಕಸ್ತುರಿನಗರ",
                "stop_id": "20915",
                "lat": 13.00404,
                "lon": 77.66315
              },
              {
                "name": "B Channasandra Bridge(Ramamurthy Nagara Ring Road)",
                "name_kn": "ಬ್ ಚಂನಸಂದ್ರ ಬ್ರಿದ್ಗೆ(ರಮಮುರ್ತೆ ನಗರ ರಿಙ್ ರೊದ್)",
                "stop_id": "22651",
                "lat": 13.01124,
                "lon": 77.66226
              },
              {
                "name": "Vijaya Bank Colony Ring Road",
                "name_kn": "ವಿಜಯ ಬಂಕ್ ಕೊಲೊನೆ ರಿಙ್ ರೊದ್",
                "stop_id": "21264",
                "lat": 13.01695,
                "lon": 77.66021
              },
              {
                "name": "Horamavu Signal",
                "name_kn": "ಹೊರಮವು ಸಿಗ್ನಲ್",
                "stop_id": "20839",
                "lat": 13.01961,
                "lon": 77.65385
              },
              {
                "name": "Babusabpalya",
                "name_kn": "ಬಬುಸಬ್ಪಲೆ",
                "stop_id": "20617",
                "lat": 13.0226,
                "lon": 77.64702
              },
              {
                "name": "Kalyananagara",
                "name_kn": "ಕಲೆನನಗರ",
                "stop_id": "20904",
                "lat": 13.0264,
                "lon": 77.63642
              },
              {
                "name": "Hennur Junction",
                "name_kn": "ಹೆಂನುರ್ ಜುಂಕ್ಟಿೊಂ",
                "stop_id": "21528",
                "lat": 13.02948,
                "lon": 77.63125
              },
              {
                "name": "HBR Layout",
                "name_kn": "ಹ್ಬ್ರ್ ಲಯೌಟ್",
                "stop_id": "20816",
                "lat": 13.035,
                "lon": 77.62849
              },
              {
                "name": "Nagawara Junction",
                "name_kn": "ನಗವರ ಜುಂಕ್ಟಿೊಂ",
                "stop_id": "20885",
                "lat": 13.04046,
                "lon": 77.62408
              },
              {
                "name": "Manyatha Tech Park",
                "name_kn": "ಮನೆತ ಟೆಚ್ ಪರ್ಕ್",
                "stop_id": "20999",
                "lat": 13.04106,
                "lon": 77.61999
              },
              {
                "name": "Veerannapalya",
                "name_kn": "ವೀರಂನಪಲೆ",
                "stop_id": "21252",
                "lat": 13.04217,
                "lon": 77.61352
              },
              {
                "name": "Kempapura",
                "name_kn": "ಕೆಂಪಪುರ",
                "stop_id": "20920",
                "lat": 13.0436,
                "lon": 77.60121
              },
              {
                "name": "Hebbala Bridge",
                "name_kn": "ಹೆಬ್ಬಲ ಬ್ರಿದ್ಗೆ",
                "stop_id": "21527",
                "lat": 13.04274,
                "lon": 77.58967
              },
              {
                "name": "Bhadrappa Layout",
                "name_kn": "ಭದ್ರಪ್ಪ ಲಯೌಟ್",
                "stop_id": "20659",
                "lat": 13.0472,
                "lon": 77.57339
              },
              {
                "name": "Devinagara Cross",
                "name_kn": "ದೆವಿನಗರ ಕ್ರೊಸ್ಸ್",
                "stop_id": "20758",
                "lat": 13.04689,
                "lon": 77.5692
              },
              {
                "name": "Kuvempu Circle",
                "name_kn": "ಕುವೆಂಪು ಕಿರ್ಕ್ಲೆ",
                "stop_id": "20962",
                "lat": 13.04457,
                "lon": 77.56281
              },
              {
                "name": "BEL Circle",
                "name_kn": "ಬೆಲ್ ಕಿರ್ಕ್ಲೆ",
                "stop_id": "21464",
                "lat": 13.04402,
                "lon": 77.55489
              },
              {
                "name": "MES Road",
                "name_kn": "ಮೆಸ್ ರೊದ್",
                "stop_id": "21571",
                "lat": 13.04392,
                "lon": 77.55436
              },
              {
                "name": "Muthyalanagara Cross",
                "name_kn": "ಮುತೆಲನಗರ ಕ್ರೊಸ್ಸ್",
                "stop_id": "21576",
                "lat": 13.04362,
                "lon": 77.55315
              },
              {
                "name": "Jalahalli Bakery",
                "name_kn": "ಜಲಹಲ್ಲಿ ಬಕೆರೆ",
                "stop_id": "21539",
                "lat": 13.04254,
                "lon": 77.54977
              },
              {
                "name": "Jalahalli Village",
                "name_kn": "ಜಲಹಲ್ಲಿ ವಿಲ್ಲಗೆ",
                "stop_id": "21541",
                "lat": 13.04165,
                "lon": 77.54718
              },
              {
                "name": "Alisda",
                "name_kn": "ಅಲಿಸ್ದ",
                "stop_id": "21453",
                "lat": 13.03404,
                "lon": 77.54112
              },
              {
                "name": "Goraguntepalya",
                "name_kn": "ಗೊರಗುಂಟೆಪಲೆ",
                "stop_id": "20790",
                "lat": 13.02895,
                "lon": 77.5395
              },
              {
                "name": "CMTI",
                "name_kn": "ಕ್ಂಟಿ",
                "stop_id": "20723",
                "lat": 13.0307,
                "lon": 77.53641
              },
              {
                "name": "SRS Peenya",
                "name_kn": "ಸ್ರ್ಸ್ ಪೀನೆ",
                "stop_id": "21189",
                "lat": 13.03428,
                "lon": 77.53032
              },
              {
                "name": "Peenya Industry Metro Station",
                "name_kn": "ಪೀನೆ ಿಂದುಸ್ಟ್ರೆ ಮೆಟ್ರೊ ಸ್ಟಟಿೊಂ",
                "stop_id": "21082",
                "lat": 13.03556,
                "lon": 77.52613
              },
              {
                "name": "Jalahalli Cross",
                "name_kn": "ಜಲಹಲ್ಲಿ ಕ್ರೊಸ್ಸ್",
                "stop_id": "20867",
                "lat": 13.03976,
                "lon": 77.51853
              },
              {
                "name": "T Dasarahalli",
                "name_kn": "ಟ್ ದಸರಹಲ್ಲಿ",
                "stop_id": "21211",
                "lat": 13.04283,
                "lon": 77.51276
              },
              {
                "name": "8th Mile Dasarahalli",
                "name_kn": "8ತ್ ಮಿಲೆ ದಸರಹಲ್ಲಿ",
                "stop_id": "35570",
                "lat": 13.0451,
                "lon": 77.50748
              },
              {
                "name": "Deepak Factory",
                "name_kn": "ದೀಪಕ್ ೞಕ್ಟೊರೆ",
                "stop_id": "24818",
                "lat": 13.04704,
                "lon": 77.50159
              },
              {
                "name": "Widia Factory",
                "name_kn": "ವಿದಿ ೞಕ್ಟೊರೆ",
                "stop_id": "23313",
                "lat": 13.04877,
                "lon": 77.49664
              },
              {
                "name": "Marison Factory",
                "name_kn": "ಮರಿಸೊಂ ೞಕ್ಟೊರೆ",
                "stop_id": "28839",
                "lat": 13.0502,
                "lon": 77.49252
              },
              {
                "name": "Chikkabidarakallu",
                "name_kn": "ಚಿಕ್ಕಬಿದರಕಲ್ಲು",
                "stop_id": "24566",
                "lat": 13.05196,
                "lon": 77.48778
              },
              {
                "name": "Jindal",
                "name_kn": "ಜಿಂದಲ್",
                "stop_id": "26340",
                "lat": 13.05353,
                "lon": 77.48338
              },
              {
                "name": "Anchepalya",
                "name_kn": "ಅಂಚೆಪಲೆ",
                "stop_id": "23084",
                "lat": 13.05497,
                "lon": 77.47936
              },
              {
                "name": "Madavara",
                "name_kn": "ಮದವರ",
                "stop_id": "28598",
                "lat": 13.05665,
                "lon": 77.47343
              },
              {
                "name": "TCI",
                "name_kn": "ಟ್ಕಿ",
                "stop_id": "26844",
                "lat": 13.05906,
                "lon": 77.46474
              },
              {
                "name": "Madanayakanahalli",
                "name_kn": "ಮದನಯಕನಹಲ್ಲಿ",
                "stop_id": "33724",
                "lat": 13.06102,
                "lon": 77.46102
              },
              {
                "name": "Makali",
                "name_kn": "ಮಕಲಿ",
                "stop_id": "33748",
                "lat": 13.06564,
                "lon": 77.45325
              },
              {
                "name": "Adakimaranahalli",
                "name_kn": "ಅದಕಿಮರನಹಲ್ಲಿ",
                "stop_id": "29439",
                "lat": 13.07028,
                "lon": 77.44482
              },
              {
                "name": "Ravuthanahalli Cross",
                "name_kn": "ರವುತನಹಲ್ಲಿ ಕ್ರೊಸ್ಸ್",
                "stop_id": "38537",
                "lat": 13.07334,
                "lon": 77.43938
              },
              {
                "name": "Dasanapura",
                "name_kn": "ದಸನಪುರ",
                "stop_id": "24788",
                "lat": 13.07523,
                "lon": 77.43599
              },
              {
                "name": "Devannanapalya",
                "name_kn": "ದೆವಂನನಪಲೆ",
                "stop_id": "24942",
                "lat": 13.07734,
                "lon": 77.43133
              },
              {
                "name": "Arishinakunte",
                "name_kn": "ಅರಿಶಿನಕುಂಟೆ",
                "stop_id": "29571",
                "lat": 13.07966,
                "lon": 77.42419
              },
              {
                "name": "Vishwa Shanti Ashrama",
                "name_kn": "ವಿಶ್ವ ಶಂಟಿ ಶ್ರಮ",
                "stop_id": "27343",
                "lat": 13.08402,
                "lon": 77.41724
              },
              {
                "name": "Binnamangala",
                "name_kn": "ಬಿಂನಮಙಲ",
                "stop_id": "30108",
                "lat": 13.08744,
                "lon": 77.41242
              },
              {
                "name": "Nursery Nelamangala",
                "name_kn": "ನುರ್ಸೆರೆ ನೆಲಮಙಲ",
                "stop_id": "27520",
                "lat": 13.09011,
                "lon": 77.40928
              },
              {
                "name": "Weavers Colony Nelamangala",
                "name_kn": "ವೆವೆರ್ಸ್ ಕೊಲೊನೆ ನೆಲಮಙಲ",
                "stop_id": "27377",
                "lat": 13.09403,
                "lon": 77.40561
              },
              {
                "name": "TB Nelamangala",
                "name_kn": "ಟ್ಬ್ ನೆಲಮಙಲ",
                "stop_id": "26838",
                "lat": 13.09706,
                "lon": 77.40148
              },
              {
                "name": "Anjaneya Temple Nelamangala",
                "name_kn": "ಅಞನೆಯ ಟೆಂಪ್ಲೆ ನೆಲಮಙಲ",
                "stop_id": "29533",
                "lat": 13.09723,
                "lon": 77.39774
              },
              {
                "name": "Nelamangala Bus Station",
                "name_kn": "ನೆಲಮಙಲ ಬುಸ್ ಸ್ಟಟಿೊಂ",
                "stop_id": "27411",
                "lat": 13.09803,
                "lon": 77.39387
              }
            ]
          },
          {
            "Route": "500-D D10G-TNF-CSB DOWN",
            "RouteId": 14904,
            "RouteParentId": 1066,
            "Destination": "Hebbala Bridge",
            "Via": "",
            "Area": "Central Silk Board",
            "PlatformNumber": "2A",
            "KannadaDestination": "ಹೆಬ್ಬಲ ಬ್ರಿದ್ಗೆ",
            "KannadaArea": "ಕೇಂದ್ರ ರೇಷ್ಮೆ ಮಂಡಳಿ",
            "KannadaVia": "",
            "FromStationId": 20707,
            "Stops": [
              {
                "name": "Central Silk Board",
                "name_kn": "ಕೆಂಟ್ರಲ್ ಸಿಲ್ಕ್ ಬೊರ್ದ್",
                "stop_id": "20707",
                "lat": 12.91803,
                "lon": 77.62355
              },
              {
                "name": "SI Apartment HSR Layout",
                "name_kn": "ಸಿ ಪರ್ಟ್ಮೆಂಟ್ ಹ್ಸ್ರ್ ಲಯೌಟ್",
                "stop_id": "21177",
                "lat": 12.91677,
                "lon": 77.62942
              },
              {
                "name": "14th Main HSR Layout",
                "name_kn": "14ತ್ ಮೈಂ ಹ್ಸ್ರ್ ಲಯೌಟ್",
                "stop_id": "20568",
                "lat": 12.91637,
                "lon": 77.63472
              },
              {
                "name": "Depot-25 Gate",
                "name_kn": "ದೆಪೊಟ್-25 ಗಟೆ",
                "stop_id": "20749",
                "lat": 12.91936,
                "lon": 77.64255
              },
              {
                "name": "Agara Junction",
                "name_kn": "ಅಗರ ಜುಂಕ್ಟಿೊಂ",
                "stop_id": "20598",
                "lat": 12.92452,
                "lon": 77.65028
              },
              {
                "name": "Ibbaluru",
                "name_kn": "ಇಬ್ಬಲುರು",
                "stop_id": "20851",
                "lat": 12.9216,
                "lon": 77.66176
              },
              {
                "name": "Sarjapura Ring Road Junction",
                "name_kn": "ಸರ್ಜಪುರ ರಿಙ್ ರೊದ್ ಜುಂಕ್ಟಿೊಂ",
                "stop_id": "20889",
                "lat": 12.92113,
                "lon": 77.66604
              },
              {
                "name": "Bellanduru Petrol Bunk",
                "name_kn": "ಬೆಲ್ಲಂದುರು ಪೆಟ್ರೊಲ್ ಬುಂಕ್",
                "stop_id": "21092",
                "lat": 12.92322,
                "lon": 77.6702
              },
              {
                "name": "Bellanduru City light Apartment",
                "name_kn": "ಬೆಲ್ಲಂದುರು ಕಿಟೆ ಲಿಘ್ಟ್ ಪರ್ಟ್ಮೆಂಟ್",
                "stop_id": "20638",
                "lat": 12.92493,
                "lon": 77.67394
              },
              {
                "name": "Eco Space",
                "name_kn": "ಎಕೊ ಸ್ಪಕೆ",
                "stop_id": "20771",
                "lat": 12.92838,
                "lon": 77.6812
              },
              {
                "name": "Devarabisanahalli Ring Road",
                "name_kn": "ದೆವರಬಿಸನಹಲ್ಲಿ ರಿಙ್ ರೊದ್",
                "stop_id": "20754",
                "lat": 12.93218,
                "lon": 77.68729
              },
              {
                "name": "New Horizon College",
                "name_kn": "ನೆವ್ ಹೊರಿಜ಼ೊಂ ಕೊಲ್ಲೆಗೆ",
                "stop_id": "21059",
                "lat": 12.93516,
                "lon": 77.69063
              },
              {
                "name": "Kadubisanahalli",
                "name_kn": "ಕದುಬಿಸನಹಲ್ಲಿ",
                "stop_id": "20895",
                "lat": 12.94259,
                "lon": 77.69704
              },
              {
                "name": "Multiplex Marathahalli",
                "name_kn": "ಮುಲ್ಟಿಪ್ಲೆಕ್ಸ್ ಮರತಹಲ್ಲಿ",
                "stop_id": "21032",
                "lat": 12.95153,
                "lon": 77.69973
              },
              {
                "name": "Marathahalli Bridge",
                "name_kn": "ಮರತಹಲ್ಲಿ ಬ್ರಿದ್ಗೆ",
                "stop_id": "33843",
                "lat": 12.95488,
                "lon": 77.70053
              },
              {
                "name": "Kalamandira Marathahalli Bridge",
                "name_kn": "ಕಲಮಂದಿರ ಮರತಹಲ್ಲಿ ಬ್ರಿದ್ಗೆ",
                "stop_id": "22670",
                "lat": 12.96038,
                "lon": 77.70135
              },
              {
                "name": "Karthik Nagara",
                "name_kn": "ಕರ್ತಿಕ್ ನಗರ",
                "stop_id": "20913",
                "lat": 12.96825,
                "lon": 77.70153
              },
              {
                "name": "Dodda Nekkundi Bridge/Rainbow Hospital",
                "name_kn": "ದೊದ್ದ ನೆಕ್ಕುಂದಿ ಬ್ರಿದ್ಗೆ/ರೈಂಬೌ ಹೊಸ್ಪಿಟಲ್",
                "stop_id": "20761",
                "lat": 12.97565,
                "lon": 77.697
              },
              {
                "name": "EMC2",
                "name_kn": "ಎಂಕ್2",
                "stop_id": "20775",
                "lat": 12.98239,
                "lon": 77.69288
              },
              {
                "name": "Mahadevapura Ring Road",
                "name_kn": "ಮಹದೆವಪುರ ರಿಙ್ ರೊದ್",
                "stop_id": "20978",
                "lat": 12.98868,
                "lon": 77.68904
              },
              {
                "name": "B Narayanapura Ring Road",
                "name_kn": "ಬ್ ನರಯನಪುರ ರಿಙ್ ರೊದ್",
                "stop_id": "20616",
                "lat": 12.99589,
                "lon": 77.68387
              },
              {
                "name": "KR Pura Railway Station",
                "name_kn": "ಕ್ರ್ ಪುರ ರೈಲ್ವಯ್ ಸ್ಟಟಿೊಂ",
                "stop_id": "21113",
                "lat": 12.99998,
                "lon": 77.67654
              },
              {
                "name": "Tin Factory",
                "name_kn": "ಟಿಂ ೞಕ್ಟೊರೆ",
                "stop_id": "21228",
                "lat": 12.99645,
                "lon": 77.66857
              },
              {
                "name": "Kasthurinagara",
                "name_kn": "ಕಸ್ತುರಿನಗರ",
                "stop_id": "20915",
                "lat": 13.00404,
                "lon": 77.66315
              },
              {
                "name": "B Channasandra Bridge(Ramamurthy Nagara Ring Road)",
                "name_kn": "ಬ್ ಚಂನಸಂದ್ರ ಬ್ರಿದ್ಗೆ(ರಮಮುರ್ತೆ ನಗರ ರಿಙ್ ರೊದ್)",
                "stop_id": "22651",
                "lat": 13.01124,
                "lon": 77.66226
              },
              {
                "name": "Vijaya Bank Colony Ring Road",
                "name_kn": "ವಿಜಯ ಬಂಕ್ ಕೊಲೊನೆ ರಿಙ್ ರೊದ್",
                "stop_id": "21264",
                "lat": 13.01695,
                "lon": 77.66021
              },
              {
                "name": "Horamavu Signal",
                "name_kn": "ಹೊರಮವು ಸಿಗ್ನಲ್",
                "stop_id": "20839",
                "lat": 13.01961,
                "lon": 77.65385
              },
              {
                "name": "Babusabpalya",
                "name_kn": "ಬಬುಸಬ್ಪಲೆ",
                "stop_id": "20617",
                "lat": 13.0226,
                "lon": 77.64702
              },
              {
                "name": "Kalyananagara",
                "name_kn": "ಕಲೆನನಗರ",
                "stop_id": "20904",
                "lat": 13.0264,
                "lon": 77.63642
              },
              {
                "name": "Hennur Junction",
                "name_kn": "ಹೆಂನುರ್ ಜುಂಕ್ಟಿೊಂ",
                "stop_id": "21528",
                "lat": 13.02948,
                "lon": 77.63125
              },
              {
                "name": "HBR Layout",
                "name_kn": "ಹ್ಬ್ರ್ ಲಯೌಟ್",
                "stop_id": "20816",
                "lat": 13.035,
                "lon": 77.62849
              },
              {
                "name": "Nagawara Junction",
                "name_kn": "ನಗವರ ಜುಂಕ್ಟಿೊಂ",
                "stop_id": "20885",
                "lat": 13.04046,
                "lon": 77.62408
              },
              {
                "name": "Manyatha Tech Park",
                "name_kn": "ಮನೆತ ಟೆಚ್ ಪರ್ಕ್",
                "stop_id": "20999",
                "lat": 13.04106,
                "lon": 77.61999
              },
              {
                "name": "Veerannapalya",
                "name_kn": "ವೀರಂನಪಲೆ",
                "stop_id": "21252",
                "lat": 13.04217,
                "lon": 77.61352
              },
              {
                "name": "Kempapura",
                "name_kn": "ಕೆಂಪಪುರ",
                "stop_id": "20920",
                "lat": 13.0436,
                "lon": 77.60121
              },
              {
                "name": "Hebbala Bridge",
                "name_kn": "ಹೆಬ್ಬಲ ಬ್ರಿದ್ಗೆ",
                "stop_id": "20823",
                "lat": 13.04259,
                "lon": 77.5925
              }
            ]
          },
          {
            "Route": "500-FB CSB-HSK UP",
            "RouteId": 16842,
            "RouteParentId": 2814,
            "Destination": "Kadugodi Bus Station",
            "Via": "",
            "Area": "Central Silk Board",
            "PlatformNumber": "2A",
            "KannadaDestination": "ಕದುಗೊದಿ ಬುಸ್ ಸ್ಟಟಿೊಂ",
            "KannadaArea": "ಕೇಂದ್ರ ರೇಷ್ಮೆ ಮಂಡಳಿ",
            "KannadaVia": "",
            "FromStationId": 20707,
            "Stops": [
              {
                "name": "Central Silk Board",
                "name_kn": "ಕೆಂಟ್ರಲ್ ಸಿಲ್ಕ್ ಬೊರ್ದ್",
                "stop_id": "20707",
                "lat": 12.91803,
                "lon": 77.62355
              },
              {
                "name": "SI Apartment HSR Layout",
                "name_kn": "ಸಿ ಪರ್ಟ್ಮೆಂಟ್ ಹ್ಸ್ರ್ ಲಯೌಟ್",
                "stop_id": "21177",
                "lat": 12.91677,
                "lon": 77.62942
              },
              {
                "name": "14th Main HSR Layout",
                "name_kn": "14ತ್ ಮೈಂ ಹ್ಸ್ರ್ ಲಯೌಟ್",
                "stop_id": "20568",
                "lat": 12.91637,
                "lon": 77.63472
              },
              {
                "name": "Depot-25 Gate",
                "name_kn": "ದೆಪೊಟ್-25 ಗಟೆ",
                "stop_id": "20749",
                "lat": 12.91936,
                "lon": 77.64255
              },
              {
                "name": "Agara Junction",
                "name_kn": "ಅಗರ ಜುಂಕ್ಟಿೊಂ",
                "stop_id": "20598",
                "lat": 12.92452,
                "lon": 77.65028
              },
              {
                "name": "Ibbaluru",
                "name_kn": "ಇಬ್ಬಲುರು",
                "stop_id": "20851",
                "lat": 12.9216,
                "lon": 77.66176
              },
              {
                "name": "Sarjapura Ring Road Junction",
                "name_kn": "ಸರ್ಜಪುರ ರಿಙ್ ರೊದ್ ಜುಂಕ್ಟಿೊಂ",
                "stop_id": "20889",
                "lat": 12.92113,
                "lon": 77.66604
              },
              {
                "name": "Bellanduru Petrol Bunk",
                "name_kn": "ಬೆಲ್ಲಂದುರು ಪೆಟ್ರೊಲ್ ಬುಂಕ್",
                "stop_id": "21092",
                "lat": 12.92322,
                "lon": 77.6702
              },
              {
                "name": "Bellanduru City light Apartment",
                "name_kn": "ಬೆಲ್ಲಂದುರು ಕಿಟೆ ಲಿಘ್ಟ್ ಪರ್ಟ್ಮೆಂಟ್",
                "stop_id": "20638",
                "lat": 12.92493,
                "lon": 77.67394
              },
              {
                "name": "Eco Space",
                "name_kn": "ಎಕೊ ಸ್ಪಕೆ",
                "stop_id": "20771",
                "lat": 12.92838,
                "lon": 77.6812
              },
              {
                "name": "Devarabisanahalli Ring Road",
                "name_kn": "ದೆವರಬಿಸನಹಲ್ಲಿ ರಿಙ್ ರೊದ್",
                "stop_id": "20754",
                "lat": 12.93218,
                "lon": 77.68729
              },
              {
                "name": "New Horizon College",
                "name_kn": "ನೆವ್ ಹೊರಿಜ಼ೊಂ ಕೊಲ್ಲೆಗೆ",
                "stop_id": "21059",
                "lat": 12.93516,
                "lon": 77.69063
              },
              {
                "name": "Kadubisanahalli",
                "name_kn": "ಕದುಬಿಸನಹಲ್ಲಿ",
                "stop_id": "20895",
                "lat": 12.94259,
                "lon": 77.69704
              },
              {
                "name": "Multiplex Marathahalli",
                "name_kn": "ಮುಲ್ಟಿಪ್ಲೆಕ್ಸ್ ಮರತಹಲ್ಲಿ",
                "stop_id": "21032",
                "lat": 12.95153,
                "lon": 77.69973
              },
              {
                "name": "Kalamandira Marathahalli Bridge",
                "name_kn": "ಕಲಮಂದಿರ ಮರತಹಲ್ಲಿ ಬ್ರಿದ್ಗೆ",
                "stop_id": "22670",
                "lat": 12.96038,
                "lon": 77.70135
              },
              {
                "name": "Marathahalli Bridge",
                "name_kn": "ಮರತಹಲ್ಲಿ ಬ್ರಿದ್ಗೆ",
                "stop_id": "22668",
                "lat": 12.9569,
                "lon": 77.70215
              },
              {
                "name": "Munnekolalu Cross (Spice Garden)",
                "name_kn": "ಮುಂನೆಕೊಲಲು ಕ್ರೊಸ್ಸ್ (ಸ್ಪಿಕೆ ಗರ್ದೆಂ)",
                "stop_id": "21038",
                "lat": 12.9564,
                "lon": 77.70927
              },
              {
                "name": "Kundalahalli Gate",
                "name_kn": "ಕುಂದಲಹಲ್ಲಿ ಗಟೆ",
                "stop_id": "22215",
                "lat": 12.95593,
                "lon": 77.71574
              },
              {
                "name": "Thubarahalli",
                "name_kn": "ತುಬರಹಲ್ಲಿ",
                "stop_id": "22557",
                "lat": 12.95592,
                "lon": 77.72057
              },
              {
                "name": "Siddapura",
                "name_kn": "ಸಿದ್ದಪುರ",
                "stop_id": "22487",
                "lat": 12.95634,
                "lon": 77.73191
              },
              {
                "name": "Ramagondanahalli",
                "name_kn": "ರಮಗೊಂದನಹಲ್ಲಿ",
                "stop_id": "22412",
                "lat": 12.95704,
                "lon": 77.74039
              },
              {
                "name": "Varthur kodi",
                "name_kn": "ವರ್ತುರ್ ಕೊದಿ",
                "stop_id": "22577",
                "lat": 12.95897,
                "lon": 77.74642
              },
              {
                "name": "Forum Mall",
                "name_kn": "ೞೊರುಂ ಮಲ್ಲ್",
                "stop_id": "21942",
                "lat": 12.95977,
                "lon": 77.74683
              },
              {
                "name": "Brooke Bond",
                "name_kn": "ಬ್ರೂಕೆ ಬೊಂದ್",
                "stop_id": "21784",
                "lat": 12.96392,
                "lon": 77.74833
              },
              {
                "name": "White Field Post Office",
                "name_kn": "ವ್ಹಿಟೆ ೞಿೆಲ್ದ್ ಪೊಸ್ಟ್ ೊೞ್ೞಿಕೆ",
                "stop_id": "22621",
                "lat": 12.97056,
                "lon": 77.75
              },
              {
                "name": "Sai Baba General Hospital",
                "name_kn": "ಸೈ ಬಬ ಗೆನೆರಲ್ ಹೊಸ್ಪಿಟಲ್",
                "stop_id": "22442",
                "lat": 12.97383,
                "lon": 77.75042
              },
              {
                "name": "Munish Singh Hospital",
                "name_kn": "ಮುನಿಶ್ ಸಿಙ್ಹ್ ಹೊಸ್ಪಿಟಲ್",
                "stop_id": "22315",
                "lat": 12.97703,
                "lon": 77.75104
              },
              {
                "name": "Coffee Day Hope Farm",
                "name_kn": "ಕೊೞ್ೞೀ ದಯ್ ಹೊಪೆ ೞರ್ಂ",
                "stop_id": "38049",
                "lat": 12.97998,
                "lon": 77.75162
              },
              {
                "name": "Hope Farm",
                "name_kn": "ಹೊಪೆ ೞರ್ಂ",
                "stop_id": "20836",
                "lat": 12.98429,
                "lon": 77.75261
              },
              {
                "name": "Kadugodi Bridge",
                "name_kn": "ಕದುಗೊದಿ ಬ್ರಿದ್ಗೆ",
                "stop_id": "20901",
                "lat": 12.99448,
                "lon": 77.75769
              },
              {
                "name": "Kadugodi Bus Station",
                "name_kn": "ಕದುಗೊದಿ ಬುಸ್ ಸ್ಟಟಿೊಂ",
                "stop_id": "20902",
                "lat": 12.99563,
                "lon": 77.75855
              }
            ]
          }
        ]
      }
    }
  ]
}