{
  "type": "FeatureCollection",
  "features": [
    {
      "id": 3,
      "type": "Feature",
      "properties": {
        "Platform": 1,
        "Color": "#017f5f"
      },
      "geometry": {
        "coordinates": [
          77.57722020149232,
          12.960844513449207
        ],
        "type": "Point"
      }
    },
    {
      "id": 4,
      "type": "Feature",
      "properties": {
        "Platform": "6B",
        "Color": "#017f5f"
      },
      "geometry": {
        "coordinates": [
          77.57733553647996,
          12.960922929713755
        ],
        "type": "Point"
      }
    },
    {
      "id": 5,
      "type": "Feature",
      "properties": {
        "Platform": "6C",
        "Color": "#017f5f"
      },
      "geometry": {
        "coordinates": [
          77.57746964693071,
          12.96100918757623
        ],
        "type": "Point"
      }
    },
    {
      "id": 6,
      "type": "Feature",
      "properties": {
        "Platform": "5B",
        "Color": "#017f5f"
      },
      "geometry": {
        "coordinates": [
          77.57747232913971,
          12.960836671821383
        ],
        "type": "Point"
      }
    },
    {
      "id": 13,
      "type": "Feature",
      "properties": {
        "Platform": 1,
        "Color": "#017f5f"
      },
      "geometry": {
        "coordinates": [
          77.5767669081688,
          12.95945784842427
        ],
        "type": "Point"
      }
    },
    {
      "id": 14,
      "type": "Feature",
      "properties": {
        "Platform": "1A",
        "Color": "#017f5f"
      },
      "geometry": {
        "coordinates": [
          77.57678568363191,
          12.959574166522358
        ],
        "type": "Point"
      }
    },
    {
      "id": 16,
      "type": "Feature",
      "properties": {
        "Platform": "2A",
        "Color": "#017f5f"
      },
      "geometry": {
        "coordinates": [
          77.57682859897615,
          12.959801574781862
        ],
        "type": "Point"
      }
    },
    {
      "id": 17,
      "type": "Feature",
      "properties": {
        "Platform": "2B",
        "Color": "#017f5f"
      },
      "geometry": {
        "coordinates": [
          77.57685005664827,
          12.959919199662188
        ],
        "type": "Point"
      }
    },
    {
      "id": 19,
      "type": "Feature",
      "properties": {
        "Platform": 7,
        "Color": "#017f5f"
      },
      "geometry": {
        "coordinates": [
          77.57762738768027,
          12.964133947838668
        ],
        "type": "Point"
      }
    },
    {
      "id": "f087d74f6b8080c88d944a7a0853143f",
      "type": "Feature",
      "properties": {
        "Platform": 6,
        "Color": "#017f5f"
      },
      "geometry": {
        "coordinates": [
          77.5770725,
          12.96074848
        ],
        "type": "Point"
      }
    },
    {
      "id": "43eba2dcd7d66eaf254c8967bad060df",
      "type": "Feature",
      "properties": {
        "Platform": "6A",
        "Color": "#017f5f"
      },
      "geometry": {
        "coordinates": [
          77.57722020149232,
          12.960844513449207
        ],
        "type": "Point"
      }
    },
    {
      "id": "53aac842ec7f490b83b2954daaf26b33",
      "type": "Feature",
      "properties": {
        "Platform": "5A",
        "Color": "#017f5f"
      },
      "geometry": {
        "coordinates": [
          77.57726848125459,
          12.960695522478504
        ],
        "type": "Point"
      }
    },
    {
      "id": "04ceeb3007b4d84ff23c7d96d8920f22",
      "type": "Feature",
      "properties": {
        "Platform": 5,
        "Color": "#017f5f"
      },
      "geometry": {
        "coordinates": [
          77.57702708244325,
          12.960541303660541
        ],
        "type": "Point"
      }
    },
    {
      "id": "2ee472a9425f954eddbbe4d126964dbc",
      "type": "Feature",
      "properties": {
        "Platform": 4,
        "Color": "#017f5f"
      },
      "geometry": {
        "coordinates": [
          77.57740259170534,
          12.960614492264021
        ],
        "type": "Point"
      }
    },
    {
      "id": "ffb22b25457b19c6a5fa318e6712d3eb",
      "type": "Feature",
      "properties": {
        "Platform": "3B",
        "Color": "#017f5f"
      },
      "geometry": {
        "coordinates": [
          77.57724702358247,
          12.96050209547124
        ],
        "type": "Point"
      }
    },
    {
      "id": "4586dfe92a2c6df4c19333cca50948b2",
      "type": "Feature",
      "properties": {
        "Platform": "3A",
        "Color": "#017f5f"
      },
      "geometry": {
        "coordinates": [
          77.57711291313173,
          12.960415837433072
        ],
        "type": "Point"
      }
    },
    {
      "id": "3d4dae90d5760eb318215dfdcca26900",
      "type": "Feature",
      "properties": {
        "Platform": 3,
        "Color": "#017f5f"
      },
      "geometry": {
        "coordinates": [
          77.57698416709901,
          12.960321737720975
        ],
        "type": "Point"
      }
    },
    {
      "id": "267c24fd7640336ff61366cef0663d52",
      "type": "Feature",
      "properties": {
        "Platform": 2,
        "Color": "#017f5f"
      },
      "geometry": {
        "coordinates": [
          77.57680580019952,
          12.959681335957889
        ],
        "type": "Point"
      }
    },
    {
      "id": "e5a7df78a7a31f333472f816955d5f93",
      "type": "Feature",
      "properties": {
        "Platform": "Junction",
        "Icon": "J",
        "Color": "#077f01"
      },
      "geometry": {
        "coordinates": [
          77.57742,
          12.96368
        ],
        "type": "Point"
      }
    },
    {
      "id": "0e44c234ac4a75da590e8cbed687ebe2",
      "type": "Feature",
      "properties": {
        "Platform": "Fort",
        "Icon": "F",
        "Color": "#077f01"
      },
      "geometry": {
        "coordinates": [
          77.57560798130748,
          12.962066921179655
        ],
        "type": "Point"
      }
    },
    {
      "id": "a10f9603e0e9e375ee422483906b4868",
      "type": "Feature",
      "properties": {
        "Platform": "West",
        "Icon": "W",
        "Color": "#077f01"
      },
      "geometry": {
        "coordinates": [
          77.57680592437788,
          12.964079194331731
        ],
        "type": "Point"
      }
    },
    {
      "id": "e3b4470cb020284c7c7cb377f26680f5",
      "type": "Feature",
      "properties": {
        "Platform": "East",
        "Icon": "E",
        "Color": "#077f01"
      },
      "geometry": {
        "coordinates": [
          77.57691536802906,
          12.964408133562145
        ],
        "type": "Point"
      }
    },
    {
      "id": "39979dbf06a2bb25d476ee5a8710f54a",
      "type": "Feature",
      "properties": {
        "Platform": "Park",
        "Icon": "P",
        "Color": "#077f01"
      },
      "geometry": {
        "coordinates": [
          77.57891816056878,
          12.9638319698753
        ],
        "type": "Point"
      }
    },
    {
      "id": "4282e3109e15d04972633eee7e527bd1",
      "type": "Feature",
      "properties": {
        "Platform": "SJP Road",
        "Icon": "S",
        "Color": "#077f01"
      },
      "geometry": {
        "coordinates": [
          77.57743284746607,
          12.964373583082164
        ],
        "type": "Point"
      }
    }
  ]
}