{
  "type": "FeatureCollection",
  "features": [
    {
      "id": "dc3f4665fdf2f06d75dfa7f1ad404f79",
      "type": "Feature",
      "properties": {
        "Platform": "1"
      },
      "geometry": {
        "coordinates": [
          77.60308340191841,
          12.983010500578622
        ],
        "type": "Point"
      }
    },
    {
      "id": "4b5705a9a07de9fc0d1e38551282a6f2",
      "type": "Feature",
      "properties": {
        "Platform": "2"
      },
      "geometry": {
        "coordinates": [
          77.60315850377083,
          12.983284932938762
        ],
        "type": "Point"
      }
    },
    {
      "id": "fd7deeb587323aec6f8d9b047db68795",
      "type": "Feature",
      "properties": {
        "Platform": "3"
      },
      "geometry": {
        "coordinates": [
          77.60323494672777,
          12.983526694528761
        ],
        "type": "Point"
      }
    },
    {
      "id": "0cba7631a24022d965bb34479007348b",
      "type": "Feature",
      "properties": {
        "Platform": "4"
      },
      "geometry": {
        "coordinates": [
          77.6032966375351,
          12.983741012714576
        ],
        "type": "Point"
      }
    },
    {
      "id": "c5eb3f314ad5ac36bcaa074721df5be9",
      "type": "Feature",
      "properties": {
        "Platform": "5"
      },
      "geometry": {
        "coordinates": [
          77.60294258594513,
          12.983066693896086
        ],
        "type": "Point"
      }
    },
    {
      "id": "f13ede8a9b3e54b654757dfaf74a1413",
      "type": "Feature",
      "properties": {
        "Platform": "6"
      },
      "geometry": {
        "coordinates": [
          77.60302573442459,
          12.983309762518303
        ],
        "type": "Point"
      }
    },
    {
      "id": "bd8562b5445710a69171f9e14fd6861c",
      "type": "Feature",
      "properties": {
        "Platform": "7"
      },
      "geometry": {
        "coordinates": [
          77.60310620069505,
          12.983568512725865
        ],
        "type": "Point"
      }
    },
    {
      "id": "48f18a3ad396ed2381fbd21d74e5c389",
      "type": "Feature",
      "properties": {
        "Platform": "8"
      },
      "geometry": {
        "coordinates": [
          77.60318130254745,
          12.98379851268418
        ],
        "type": "Point"
      }
    },
    {
      "id": "3fa6c5387e9a2d7a7d76ef1d7e18e334",
      "type": "Feature",
      "properties": {
        "Platform": "9"
      },
      "geometry": {
        "coordinates": [
          77.60282993316652,
          12.983126807663492
        ],
        "type": "Point"
      }
    },
    {
      "id": "afd2fa693946007cd56965d697b03e14",
      "type": "Feature",
      "properties": {
        "Platform": "10"
      },
      "geometry": {
        "coordinates": [
          77.60292112827301,
          12.98336987622692
        ],
        "type": "Point"
      }
    },
    {
      "id": "34c1160da74f532156deec96979d6d5e",
      "type": "Feature",
      "properties": {
        "Platform": "11"
      },
      "geometry": {
        "coordinates": [
          77.60299354791641,
          12.983602490005834
        ],
        "type": "Point"
      }
    },
    {
      "id": "582bf9db80678880d8d68a514f2e9463",
      "type": "Feature",
      "properties": {
        "Platform": "12"
      },
      "geometry": {
        "coordinates": [
          77.60308742523193,
          12.983845558103985
        ],
        "type": "Point"
      }
    },
    {
      "id": "473b15826f3bfc9dc85de6d901bc8236",
      "type": "Feature",
      "properties": {
        "Platform": "13"
      },
      "geometry": {
        "coordinates": [
          77.60271191596986,
          12.98324703515468
        ],
        "type": "Point"
      }
    },
    {
      "id": "6a51989ef114135facf82726d0155c94",
      "type": "Feature",
      "properties": {
        "Platform": "14"
      },
      "geometry": {
        "coordinates": [
          77.60278433561326,
          12.983432603559526
        ],
        "type": "Point"
      }
    },
    {
      "id": "333278d58124792205088540877dd814",
      "type": "Feature",
      "properties": {
        "Platform": "9A"
      },
      "geometry": {
        "coordinates": [
          77.60274142026903,
          12.983171239569188
        ],
        "type": "Point"
      }
    },
    {
      "id": "0a100ad3ad621d269196ed1cfb113683",
      "type": "Feature",
      "properties": {
        "Platform": "15"
      },
      "geometry": {
        "coordinates": [
          77.60285675525667,
          12.983652149098978
        ],
        "type": "Point"
      }
    },
    {
      "id": "66eeb1b05a671152d25e0e34df2d17a0",
      "type": "Feature",
      "properties": {
        "Platform": "16"
      },
      "geometry": {
        "coordinates": [
          77.60293722152711,
          12.983897830782189
        ],
        "type": "Point"
      }
    },
    {
      "id": "bfa1a8010261c180951ad9f03fa02543",
      "type": "Feature",
      "properties": {
        "Platform": "17"
      },
      "geometry": {
        "coordinates": [
          77.60320007801057,
          12.98264589711707
        ],
        "type": "Point"
      }
    },
    {
      "id": "3af625ddb81a792ce9d65724b2bba233",
      "type": "Feature",
      "properties": {
        "Platform": "18"
      },
      "geometry": {
        "coordinates": [
          77.60325372219086,
          12.982468169070914
        ],
        "type": "Point"
      }
    },
    {
      "id": "c6d7fd8d57d64ea8791ed743b452dd07",
      "type": "Feature",
      "properties": {
        "Platform": "OPP",
        "Icon": "S"
      },
      "geometry": {
        "coordinates": [
          77.60345976287215,
          12.98342763035079
        ],
        "type": "Point"
      }
    }
  ]
}