{
  "type": "FeatureCollection",
  "features": [
    {
      "id": 3,
      "type": "Feature",
      "properties": {
        "Platform": "19D",
        "Color": "#00B9FF"
      },
      "geometry": {
        "coordinates": [
          77.571685,
          12.978305
        ],
        "type": "Point"
      }
    },
    {
      "id": 9,
      "type": "Feature",
      "properties": {
        "Platform": "19E",
        "Color": "#00B9FF"
      },
      "geometry": {
        "coordinates": [
          77.57174,
          12.978368
        ],
        "type": "Point"
      }
    },
    {
      "id": 64,
      "type": "Feature",
      "properties": {
        "Platform": "19F",
        "Color": "#00B9FF"
      },
      "geometry": {
        "coordinates": [
          77.571791,
          12.978415
        ],
        "type": "Point"
      }
    },
    {
      "id": "256090c1b7025607bb1ce3f17f5854ee",
      "type": "Feature",
      "properties": {
        "Platform": "29B",
        "Color": "#00B9FF"
      },
      "geometry": {
        "coordinates": [
          77.571546,
          12.978017
        ],
        "type": "Point"
      }
    },
    {
      "id": "58d34dcb0b584205f36b7210ff9ed282",
      "type": "Feature",
      "properties": {
        "Platform": 19,
        "Color": "#00B9FF"
      },
      "geometry": {
        "coordinates": [
          77.571433,
          12.977914
        ],
        "type": "Point"
      }
    },
    {
      "id": "5f94c8b69097551ebd23a668a1228ca1",
      "type": "Feature",
      "properties": {
        "Platform": 20,
        "Color": "#00B9FF"
      },
      "geometry": {
        "coordinates": [
          77.571855,
          12.978442
        ],
        "type": "Point"
      }
    },
    {
      "id": "4cd3d38db4e1fbad9969f3b138a064d1",
      "type": "Feature",
      "properties": {
        "Platform": 28,
        "Color": "#00B9FF"
      },
      "geometry": {
        "coordinates": [
          77.571784,
          12.978324
        ],
        "type": "Point"
      }
    },
    {
      "id": "ccf4878e6868e849092e183e0dfd394e",
      "type": "Feature",
      "properties": {
        "Platform": "28A",
        "Color": "#00B9FF"
      },
      "geometry": {
        "coordinates": [
          77.57172,
          12.97826
        ],
        "type": "Point"
      }
    },
    {
      "id": "1edaf610dea302f6febefe74a12b15ad",
      "type": "Feature",
      "properties": {
        "Platform": 29,
        "Color": "#00B9FF"
      },
      "geometry": {
        "coordinates": [
          77.571618,
          12.978133
        ],
        "type": "Point"
      }
    },
    {
      "id": "c07e2ac6f5adf538c05f6caa2f0e698a",
      "type": "Feature",
      "properties": {
        "Platform": "19B",
        "Color": "#00B9FF"
      },
      "geometry": {
        "coordinates": [
          77.57155,
          12.978147
        ],
        "type": "Point"
      }
    },
    {
      "id": "21a163ddeaa6e7e680d9ed264a9c82f7",
      "type": "Feature",
      "properties": {
        "Platform": "19A",
        "Color": "#00B9FF"
      },
      "geometry": {
        "coordinates": [
          77.571491,
          12.978043
        ],
        "type": "Point"
      }
    },
    {
      "id": "338ed58622fb358c357bcfcbc672dfcf",
      "type": "Feature",
      "properties": {
        "Platform": "29A",
        "Color": "#00B9FF"
      },
      "geometry": {
        "coordinates": [
          77.571514,
          12.977956
        ],
        "type": "Point"
      }
    },
    {
      "id": "c7b2d15d101920dea7ef30ac06fb4919",
      "type": "Feature",
      "properties": {
        "Platform": "29C",
        "Color": "#00B9FF"
      },
      "geometry": {
        "coordinates": [
          77.571484,
          12.977902
        ],
        "type": "Point"
      }
    },
    {
      "id": "c620c0b63e627fbc020f7d316a1df485",
      "type": "Feature",
      "properties": {
        "Platform": 1,
        "Color": "#44C131"
      },
      "geometry": {
        "coordinates": [
          77.572829,
          12.977732
        ],
        "type": "Point"
      }
    },
    {
      "id": "007c38c05e9795a52fe3739e3fcd94a8",
      "type": "Feature",
      "properties": {
        "Platform": 2,
        "Color": "#44C131"
      },
      "geometry": {
        "coordinates": [
          77.572687,
          12.977939
        ],
        "type": "Point"
      }
    },
    {
      "id": "418679287ade19d75c3015be64e904ed",
      "type": "Feature",
      "properties": {
        "Platform": 3,
        "Color": "#44C131"
      },
      "geometry": {
        "coordinates": [
          77.572486,
          12.978041
        ],
        "type": "Point"
      }
    },
    {
      "id": "7ff416c6eaa814d1dd5e7500de837172",
      "type": "Feature",
      "properties": {
        "Platform": "3A",
        "Color": "#44C131"
      },
      "geometry": {
        "coordinates": [
          77.572273,
          12.978054
        ],
        "type": "Point"
      }
    },
    {
      "id": "775f30b0be07658f3efa7bfcfb79850c",
      "type": "Feature",
      "properties": {
        "Platform": 4,
        "Color": "#44C131"
      },
      "geometry": {
        "coordinates": [
          77.572105,
          12.977986
        ],
        "type": "Point"
      }
    },
    {
      "id": "fbf0d2ee740b17fdb66e5d026c4746ac",
      "type": "Feature",
      "properties": {
        "Platform": "4A",
        "Color": "#44C131"
      },
      "geometry": {
        "coordinates": [
          77.571969,
          12.977848
        ],
        "type": "Point"
      }
    },
    {
      "id": "52ac696e77347f14abfc4c019e4af1c9",
      "type": "Feature",
      "properties": {
        "Platform": "4B",
        "Color": "#44C131"
      },
      "geometry": {
        "coordinates": [
          77.571908,
          12.977703
        ],
        "type": "Point"
      }
    },
    {
      "id": "fcfbbfa55278131e47e3be8bd41cd081",
      "type": "Feature",
      "properties": {
        "Platform": 5,
        "Color": "#DE3D82"
      },
      "geometry": {
        "coordinates": [
          77.571837,
          12.977804
        ],
        "type": "Point"
      }
    },
    {
      "id": "0daed711f6a890b45feb2d067ad27940",
      "type": "Feature",
      "properties": {
        "Platform": 6,
        "Color": "#DE3D82"
      },
      "geometry": {
        "coordinates": [
          77.571922,
          12.977935
        ],
        "type": "Point"
      }
    },
    {
      "id": "b80421fcbe807c09ad4d5ab80bff5e9e",
      "type": "Feature",
      "properties": {
        "Platform": "6A",
        "Color": "#DE3D82"
      },
      "geometry": {
        "coordinates": [
          77.572038,
          12.978042
        ],
        "type": "Point"
      }
    },
    {
      "id": "ebd24b7b0bc8d9f24772ecbbcb6ad909",
      "type": "Feature",
      "properties": {
        "Platform": 7,
        "Color": "#DE3D82"
      },
      "geometry": {
        "coordinates": [
          77.572159,
          12.978113
        ],
        "type": "Point"
      }
    },
    {
      "id": "1a4bcac16df132e147c2c4d9de9e1b2c",
      "type": "Feature",
      "properties": {
        "Platform": 8,
        "Color": "#DE3D82"
      },
      "geometry": {
        "coordinates": [
          77.572326,
          12.978144
        ],
        "type": "Point"
      }
    },
    {
      "id": "834ec3be9879e9842848d2bf347dcdb8",
      "type": "Feature",
      "properties": {
        "Platform": "8A",
        "Color": "#DE3D82"
      },
      "geometry": {
        "coordinates": [
          77.572462,
          12.978144
        ],
        "type": "Point"
      }
    },
    {
      "id": "df5f7f182e3f668bb623d70687b053d2",
      "type": "Feature",
      "properties": {
        "Platform": "8B",
        "Color": "#DE3D82"
      },
      "geometry": {
        "coordinates": [
          77.572632,
          12.978095
        ],
        "type": "Point"
      }
    },
    {
      "id": "ef22fad41b4dd19045e44a32eaa92000",
      "type": "Feature",
      "properties": {
        "Platform": 9,
        "Color": "#DE3D82"
      },
      "geometry": {
        "coordinates": [
          77.572806,
          12.977988
        ],
        "type": "Point"
      }
    },
    {
      "id": "abc2d6996e839e817ccb55c950b24491",
      "type": "Feature",
      "properties": {
        "Platform": 10,
        "Color": "#DE3D82"
      },
      "geometry": {
        "coordinates": [
          77.572925,
          12.977775
        ],
        "type": "Point"
      }
    },
    {
      "id": "03275e418543099dff644f22146b53e6",
      "type": "Feature",
      "properties": {
        "Platform": 14,
        "Color": "#F68511"
      },
      "geometry": {
        "coordinates": [
          77.572446,
          12.978294
        ],
        "type": "Point"
      }
    },
    {
      "id": "6dfa36853269a7656557d9dcd5f538b8",
      "type": "Feature",
      "properties": {
        "Platform": 13,
        "Color": "#F68511"
      },
      "geometry": {
        "coordinates": [
          77.572543,
          12.978275
        ],
        "type": "Point"
      }
    },
    {
      "id": "6ab081e881ed490991603b31d63033a8",
      "type": "Feature",
      "properties": {
        "Platform": "12A",
        "Color": "#F68511"
      },
      "geometry": {
        "coordinates": [
          77.572653,
          12.978244
        ],
        "type": "Point"
      }
    },
    {
      "id": "47f19ba0e44018253c3393a3367747ad",
      "type": "Feature",
      "properties": {
        "Platform": 12,
        "Color": "#F68511"
      },
      "geometry": {
        "coordinates": [
          77.57276,
          12.97819
        ],
        "type": "Point"
      }
    },
    {
      "id": "cd5c49ee4c3da37b0f92dfb066772aee",
      "type": "Feature",
      "properties": {
        "Platform": "11C",
        "Color": "#F68511"
      },
      "geometry": {
        "coordinates": [
          77.572863,
          12.978114
        ],
        "type": "Point"
      }
    },
    {
      "id": "85381293675c62417aafabfbb4222e93",
      "type": "Feature",
      "properties": {
        "Platform": "11B",
        "Color": "#F68511"
      },
      "geometry": {
        "coordinates": [
          77.57296,
          12.978012
        ],
        "type": "Point"
      }
    },
    {
      "id": "9b470a3d91cfca8a739f49dc4d2d166f",
      "type": "Feature",
      "properties": {
        "Platform": "11A",
        "Color": "#F68511"
      },
      "geometry": {
        "coordinates": [
          77.573017,
          12.97791
        ],
        "type": "Point"
      }
    },
    {
      "id": "765af76bf9d9fe578e8bdb618e3e5fab",
      "type": "Feature",
      "properties": {
        "Platform": 11,
        "Color": "#F68511"
      },
      "geometry": {
        "coordinates": [
          77.573074,
          12.977793
        ],
        "type": "Point"
      }
    },
    {
      "id": "e68700e0bcfe980b349735682c9b06a3",
      "type": "Feature",
      "properties": {
        "Platform": 15,
        "Color": "#F68511"
      },
      "geometry": {
        "coordinates": [
          77.57232,
          12.978299
        ],
        "type": "Point"
      }
    },
    {
      "id": "44aeea4ec3849b8035302d8dc145ae93",
      "type": "Feature",
      "properties": {
        "Platform": "15A",
        "Color": "#F68511"
      },
      "geometry": {
        "coordinates": [
          77.572201,
          12.978273
        ],
        "type": "Point"
      }
    },
    {
      "id": "ca52d57f781501c22730b0e090cafb97",
      "type": "Feature",
      "properties": {
        "Platform": 16,
        "Color": "#F68511"
      },
      "geometry": {
        "coordinates": [
          77.572084,
          12.978237
        ],
        "type": "Point"
      }
    },
    {
      "id": "ebbb650b6b70cdb0a16e0e26c565a192",
      "type": "Feature",
      "properties": {
        "Platform": 17,
        "Color": "#F68511"
      },
      "geometry": {
        "coordinates": [
          77.571967,
          12.978177
        ],
        "type": "Point"
      }
    },
    {
      "id": "9ebfa5f654943f5804d6902fbb3daceb",
      "type": "Feature",
      "properties": {
        "Platform": "17A",
        "Color": "#F68511"
      },
      "geometry": {
        "coordinates": [
          77.571858,
          12.978085
        ],
        "type": "Point"
      }
    },
    {
      "id": "a28ed9398c300713f073dd20767b3132",
      "type": "Feature",
      "properties": {
        "Platform": 18,
        "Color": "#F68511"
      },
      "geometry": {
        "coordinates": [
          77.571761,
          12.977969
        ],
        "type": "Point"
      }
    },
    {
      "id": "4434d223141336e461b280c5a4560235",
      "type": "Feature",
      "properties": {
        "Platform": "18A",
        "Color": "#F68511"
      },
      "geometry": {
        "coordinates": [
          77.571697,
          12.977834
        ],
        "type": "Point"
      }
    },
    {
      "id": "ff9f2078ed9e891d8fbac8ac8c3f6afa",
      "type": "Feature",
      "properties": {
        "Platform": "23D",
        "Color": "#00B9FF"
      },
      "geometry": {
        "coordinates": [
          77.573328,
          12.977845
        ],
        "type": "Point"
      }
    },
    {
      "id": "28d4861d20daa37326de9e9fc419d372",
      "type": "Feature",
      "properties": {
        "Platform": "23C",
        "Color": "#00B9FF"
      },
      "geometry": {
        "coordinates": [
          77.573269,
          12.977978
        ],
        "type": "Point"
      }
    },
    {
      "id": "7a12ebd6d64516d1a3edae34eff4672f",
      "type": "Feature",
      "properties": {
        "Platform": 24,
        "Color": "#00B9FF"
      },
      "geometry": {
        "coordinates": [
          77.573205,
          12.977981
        ],
        "type": "Point"
      }
    },
    {
      "id": "aaa17f098b9199ad2242b5128b8c3b80",
      "type": "Feature",
      "properties": {
        "Platform": "23B",
        "Color": "#00B9FF"
      },
      "geometry": {
        "coordinates": [
          77.573218,
          12.978114
        ],
        "type": "Point"
      }
    },
    {
      "id": "464cdfc7642f9a430fda791ed189cc35",
      "type": "Feature",
      "properties": {
        "Platform": "23A",
        "Color": "#00B9FF"
      },
      "geometry": {
        "coordinates": [
          77.573102,
          12.978253
        ],
        "type": "Point"
      }
    },
    {
      "id": "ecb4a57aff7f639ba62e6fe53e3a6e2b",
      "type": "Feature",
      "properties": {
        "Platform": 25,
        "Color": "#00B9FF"
      },
      "geometry": {
        "coordinates": [
          77.573083,
          12.978183
        ],
        "type": "Point"
      }
    },
    {
      "id": "89621f592d14c33c92251458e7ffcc9a",
      "type": "Feature",
      "properties": {
        "Platform": "25A",
        "Color": "#00B9FF"
      },
      "geometry": {
        "coordinates": [
          77.572966,
          12.978315
        ],
        "type": "Point"
      }
    },
    {
      "id": "15f65c2d4ebd0fe9044acb903faad0ac",
      "type": "Feature",
      "properties": {
        "Platform": 23,
        "Color": "#00B9FF"
      },
      "geometry": {
        "coordinates": [
          77.573003,
          12.978355
        ],
        "type": "Point"
      }
    },
    {
      "id": "f52e09b4b1d84983848f403b451eb80f",
      "type": "Feature",
      "properties": {
        "Platform": "25B",
        "Color": "#00B9FF"
      },
      "geometry": {
        "coordinates": [
          77.572783,
          12.978424
        ],
        "type": "Point"
      }
    },
    {
      "id": "41739c312e0cbfd1d6cc2579e2079a47",
      "type": "Feature",
      "properties": {
        "Platform": "22A",
        "Color": "#00B9FF"
      },
      "geometry": {
        "coordinates": [
          77.572804,
          12.978469
        ],
        "type": "Point"
      }
    },
    {
      "id": "8868144103d683e61d25fc6e57a9a299",
      "type": "Feature",
      "properties": {
        "Platform": "25C",
        "Color": "#00B9FF"
      },
      "geometry": {
        "coordinates": [
          77.572582,
          12.978488
        ],
        "type": "Point"
      }
    },
    {
      "id": "8a717044392c2a3fa4909e86ab3e1446",
      "type": "Feature",
      "properties": {
        "Platform": 22,
        "Color": "#00B9FF"
      },
      "geometry": {
        "coordinates": [
          77.572579,
          12.978541
        ],
        "type": "Point"
      }
    },
    {
      "id": "ea72e05bd6781f992b7be1efd0e79c30",
      "type": "Feature",
      "properties": {
        "Platform": 26,
        "Color": "#00B9FF"
      },
      "geometry": {
        "coordinates": [
          77.572281,
          12.978522
        ],
        "type": "Point"
      }
    },
    {
      "id": "fa964902ebbf48e06f6e06f22922dbac",
      "type": "Feature",
      "properties": {
        "Platform": 21,
        "Color": "#00B9FF"
      },
      "geometry": {
        "coordinates": [
          77.572249,
          12.978567
        ],
        "type": "Point"
      }
    },
    {
      "id": "5ae442b18ac058ed5af2584501c4ab65",
      "type": "Feature",
      "properties": {
        "Platform": "26A",
        "Color": "#00B9FF"
      },
      "geometry": {
        "coordinates": [
          77.572142,
          12.978493
        ],
        "type": "Point"
      }
    },
    {
      "id": "bb608bd4919e2daf252b61a3ae776628",
      "type": "Feature",
      "properties": {
        "Platform": "20B",
        "Color": "#00B9FF",
        "Alias": [
          "20C",
          "20D",
          "20E"
        ]
      },
      "geometry": {
        "coordinates": [
          77.572098,
          12.978533
        ],
        "type": "Point"
      }
    },
    {
      "id": "3d005dd54ec8002706ffc3772c4a1f31",
      "type": "Feature",
      "properties": {
        "Platform": 27,
        "Color": "#00B9FF"
      },
      "geometry": {
        "coordinates": [
          77.571993,
          12.978445
        ],
        "type": "Point"
      }
    },
    {
      "id": "05da486c1d5b49aec8500b0dac13da31",
      "type": "Feature",
      "properties": {
        "Platform": "20A",
        "Color": "#00B9FF"
      },
      "geometry": {
        "coordinates": [
          77.571942,
          12.978477
        ],
        "type": "Point"
      }
    },
    {
      "id": "156a007c68792e8d867180a5ff2dba20",
      "type": "Feature",
      "properties": {
        "Platform": "27A",
        "Color": "#00B9FF"
      },
      "geometry": {
        "coordinates": [
          77.571873,
          12.978381
        ],
        "type": "Point"
      }
    },
    {
      "id": "d2b92db44b7c158daca44e97a1fce7f4",
      "type": "Feature",
      "properties": {
        "Platform": "19C",
        "Color": "#00B9FF"
      },
      "geometry": {
        "coordinates": [
          77.571614,
          12.978235
        ],
        "type": "Point"
      }
    },
    {
      "id": "84f27671a265d3f7cb27b2940b5164ce",
      "type": "Feature",
      "properties": {
        "Platform": 30,
        "Color": "#5359E0",
        "Icon": "32"
      },
      "geometry": {
        "coordinates": [
          77.572579,
          12.977537
        ],
        "type": "Point"
      }
    }
  ]
}