{
  "type": "FeatureCollection",
  "features": [
    {
      "id": 1,
      "type": "Feature",
      "properties": {
        "Platform": 2,
        "Color": "#B50000"
      },
      "geometry": {
        "coordinates": [
          77.59248095490932,
          12.954526302946533
        ],
        "type": "Point"
      }
    },
    {
      "id": 2,
      "type": "Feature",
      "properties": {
        "Platform": 3
      },
      "geometry": {
        "coordinates": [
          77.59252698404055,
          12.954717245900952
        ],
        "type": "Point"
      }
    },
    {
      "id": 3,
      "type": "Feature",
      "properties": {
        "Platform": 4
      },
      "geometry": {
        "coordinates": [
          77.5925823663398,
          12.954820546784163
        ],
        "type": "Point"
      }
    },
    {
      "id": 4,
      "type": "Feature",
      "properties": {
        "Platform": 5
      },
      "geometry": {
        "coordinates": [
          77.59266657236316,
          12.954314318548072
        ],
        "type": "Point"
      }
    },
    {
      "id": 5,
      "type": "Feature",
      "properties": {
        "Platform": 6
      },
      "geometry": {
        "coordinates": [
          77.59272426015366,
          12.954445497547468
        ],
        "type": "Point"
      }
    },
    {
      "id": 6,
      "type": "Feature",
      "properties": {
        "Platform": 7
      },
      "geometry": {
        "coordinates": [
          77.59275887218348,
          12.954539459330377
        ],
        "type": "Point"
      }
    },
    {
      "id": 7,
      "type": "Feature",
      "properties": {
        "Platform": 8,
        "Color": "#B50000"
      },
      "geometry": {
        "coordinates": [
          77.59284348094263,
          12.954738101609934
        ],
        "type": "Point"
      }
    },
    {
      "id": "c22549138abefe1433e6108b45859f2e",
      "type": "Feature",
      "properties": {
        "Platform": 1,
        "Color": "#0085B5"
      },
      "geometry": {
        "coordinates": [
          77.59241942126562,
          12.954421359786195
        ],
        "type": "Point"
      }
    },
    {
      "id": "15eeee629338b47482fda87601e66604",
      "type": "Feature",
      "properties": {
        "Platform": "North",
        "Icon": "N",
        "Color": "#3BB500",
        "Exclusive": true
      },
      "geometry": {
        "coordinates": [
          77.59175841224965,
          12.955063609746801
        ],
        "type": "Point"
      }
    },
    {
      "id": "c11c48c96f2a15b96a662a4fa0b3f6b1",
      "type": "Feature",
      "properties": {
        "Platform": "South",
        "Icon": "S",
        "Color": "#3BB500",
        "Exclusive": true
      },
      "geometry": {
        "coordinates": [
          77.59192883002908,
          12.955014750928612
        ],
        "type": "Point"
      }
    }
  ]
}